id,nombre,tipo,tipo_normalizado,nom_mapa,sede,direccion,telefono,e_mail,facebook,web,actividades,instalaciones,calle,altura,direccion_normalizada,barrio,comuna,long,lat
64,17 DE AGOSTO,CLUB DE BARRIO,club_de_barrio,17 De Agosto,UNICA,Albarellos 2935,4572-1106,c17deagosto@yahoo.com.ar -  c17deagosto@hotmail.com,,www.club17deagosto.com.ar,"Baby, futsal masculino y femenino, basquet masculino y femenino, bochas, natacion, gimnasia deportiva, musculacion, tenis, artes marciales. Actividades culturales.",canchas - salones - natatorio,ALBARELLOS AV.,2935,ALBARELLOS AV. 2935,Villa Pueyrredon,Comuna 12,-58.510695,-34.577997
231,25 DE MAYO 1810,CLUB DE BARRIO,club_de_barrio,25 De Mayo 1810,,Cosquin 1651,4687-5179,,,,,,COSQUIN,1651,COSQUIN 1651,Mataderos,Comuna 9,-58.513878,-34.655559
34,AGRONOMIA CENTRAL,CLUB DE BARRIO,club_de_barrio,Agronomia Central,UNICA,Bauness 958,4524-2225,clubagronomiacentral@gmail.com,Club Agronomia Central,www.clubagronomiacentral.wordpress.com,"voley, basquet, baby fútbol, patin, boxeo, gimnasia, futsal, fútbol femenino",canchas - salon,BAUNESS,958,BAUNESS 958,Parque Chas,Comuna 15,-58.474609,-34.589479
188,AGRUPACION SAN JORGE,CLUB,club,Agrupacion San Jorge,UNICA,VILELA 3340,4542-0585,,,,"Escuela de fútbol infantil en cancha de césped, escuela de fútbol femenino, fútbol femenino en cancha de césped, boxeo recreativo mixto, aeróbica mixta, gimnasio de musculación. Actividades culturales.",2 canchas de cesped y tierra  - cancha polideportiva de cemento - natatorio descubierto - solarium recreativo - parrillas  - SUM,VILELA,3340,VILELA 3340,Saavedra,Comuna 12,-58.480102,-34.549171
209,AGRUPACION SUBATLÁNTICA DE EXPEDICIONES SUBMARINAS JULES ROSSI,CLUB DE BARRIO,club_de_barrio,Agrupacion Subatlántica De Expediciones Submarinas Jules Rossi,,Quito 3657,4931-6746,info@ases.org.ar - asesbuceo@fibertel.com.ar,ASES Escuela de Buceo Organización sin fines de lucro,,buceo deportivo,Natatorio -  Cámara Hiperbárica,QUITO,3657,QUITO 3657,Almagro,Comuna 5,-58.417841,-34.616603
123,ALEMAN DE EQUITACION,CLUB,club,Aleman De Equitacion,UNICA,Av. Dorrego 4045,4772-6289,caehipico@hotmail.com,Club Alemán de Equitación,www.clubalemandeequitacion.com,Equitacion - salto - volteo,pistas - caballerizas - pista cubierta - natatorio - boxes - parque  - vallas - confiterias - salon de eventos,DORREGO AV.,4045,DORREGO AV. 4045,Palermo,Comuna 14,-58.417047,-34.562903
39,ALL BOYS DE SAAVEDRA,CLUB DE BARRIO,club_de_barrio,All Boys De Saavedra,UNICA,Besares 3142,4541-8338,allboys_saavedra@yahoo.com.ar,All Boys de Saavedra - Voley,www.allboyssaavedra.com.ar,"Boxeo, artes marciales, danzas, gimnasia aerobica, voley, basquet, futsal, baby, escalada deportiva, indoor bike, pilates. Actividades culturales.",biblioteca - gimnasio - salon - canchas,BESARES,3142,BESARES 3142,Saavedra,Comuna 12,-58.478032,-34.547732
212,ALMAGRO ASOCIACION CIVIL,CLUB,club,Almagro Asociacion Civil,"SEDE CENTRAL, TAMBIEN TIENE ANEXO EN PROVINCIA",Medrano 522,5408-0053,info@clubalmagro.com.ar,Almagro  Equipo deportivo,www.clubalmagro.com.ar,"Baby, patín, básquet, voley, artes marciales, gimnasia con aparatos, natación.","1 cancha futsal - 3 salones - Natatorio - tambien Estadio 3 de febrero  situado en la localidad argentina de José Ingenieros, en el Partido de Tres de Febrero, en la Provincia de Buenos Aires",MEDRANO AV.,522,MEDRANO AV. 522,Almagro,Comuna 5,-58.421204,-34.604427
160,ALMAGRO BOXING CLUB,CLUB DE BARRIO,club_de_barrio,Almagro Boxing Club,UNICA,Diaz Velez 4422,4982-6529 / 4865-1471,almagroboxingclub@gmail.com,Almagro Boxing Club,www.almagroboxingclub.com.ar,Boxeo recreativo. Boxeo competitivo. Gimnasia de Boxeo. Ambos sexos. Todas las edades.,gimnasio,DIAZ VELEZ AV.,4422,DIAZ VELEZ AV. 4422,Almagro,Comuna 5,-58.429500,-34.608815
58,ALVEAR CLUB,CLUB DE BARRIO,club_de_barrio,Alvear Club,UNICA,Jose E. Rodo 4190,4636-0183,alvearclub@outlook.com,,,"Fútbol (cancha de 11 - liga metropolitana, FAFI, CAFI), Futsal (AFA), Taekwondo, Tenis, Tenis de mesa y Gimnasio de aparatos",,"RODO, JOSE E.",4190,"RODO, JOSE E. 4190",Parque Avellaneda,Comuna 9,-58.482928,-34.641955
88,AMERICA DEL SUD,CLUB DE BARRIO,club_de_barrio,America Del Sud,UNICA,Francisco Bilbao 3760,4671-6946,,,,"Fútbol (escuelita y competición -FAFI-), Futsal (AFA), Taekwondo, Patín, Acrobacia, Gimnasia modeladora y aeróbica, Gimnasio de musculación, Natación (escuela y pileta libre), Aquagym y Basquet masculino. Danza árabe y Tango.",natatorio climatizado - salon - gimnasio - cancha,"BILBAO, FRANCISCO AV.",3760,"BILBAO, FRANCISCO AV. 3760",Parque Avellaneda,Comuna 9,-58.473221,-34.644112
142,APOLO MACHAIN SAAVEDRA,CLUB DE BARRIO,club_de_barrio,Apolo Machain Saavedra,UNICA,Machain 3517,4541-1652,,,,"Danza, tango, taekwondo, gimnasia aerobica - modeladora - con aparatos",1 salon,MACHAIN,3517,MACHAIN 3517,Saavedra,Comuna 12,-58.486419,-34.560092
43,ARGENTINO,CLUB DE BARRIO,club_de_barrio,Argentino,UNICA,Albariño 2253,4682-2045,clubargentino.mataderos@gmail.com,,,"baby, gimnasia y artes marciales",biblioteca - 2 salones,ALBARIÑO,2253,ALBARIÑO 2253,Mataderos,Comuna 9,-58.485886,-34.658694
106,ARQUITECTURA,CLUB DE BARRIO,club_de_barrio,Arquitectura,UNICA,Avda. Francisco Beiro 2116,4523-7306,clubarquitectura@hotmail.com,,,"Natación, Tenis, Hockey femenino, Fútbol, Basquet, Patín, Yoga, Taekwondo, Gimnasia artística, Gimnasia (damas y caballeros) y Boxeo. Folklore y Tango.",cancha - salones - natatorio climatizado - canchas de tenis -cancha de hockey sintetica,"BEIRO, FRANCISCO AV.",2116,"BEIRO, FRANCISCO AV. 2116",Agronomia,Comuna 15,-58.484955,-34.589273
192,ASOCIACION ARGENTINA DE SORDOMUDOS,CLUB DE BARRIO,club_de_barrio,Asociacion Argentina De Sordomudos,UNICA,JULIAN ALVAREZ 1544/46,S/T,club.aso@gmail.com,aso1973,www.aso.org.ar,Voley masculino y femenino - fútbol de 11 masculino - futsal masculino y femenino - basquet masculino - bowling masculino y femenino - pesca deportiva,1 salon  - 1 sala de reuniones - 1 patio descubierto,"ALVAREZ, JULIAN",1544,"ALVAREZ, JULIAN 1544",Palermo,Comuna 14,-58.423878,-34.592522
177,ASOCIACION ATLETICA ARGENTINOS JUNIORS,CLUB,club,Asociacion Atletica Argentinos Juniors,CENTRAL POLIDEPORTIVO LAS MALVINAS,Punta Arenas 1271,4551-6887 / 4552-5603,,AAAJOficial,www.argentinosjuniors.com.ar,"Basquet, hockey sobre patines, patin, voley, handbol, escuela de fútbol, boxeo, taekwondo, yoga, bochas, natacion, gimnasia, judo. Colonia de vacaciones.","Pista de patin, 4 natatorios (2 cubiertos), gimnasio para box, canchas de bochas, canchas de paddle, cancha de handball, cancha de hockey, cancha de basquet, cancha de fútbol.",PUNTA ARENAS,1271,PUNTA ARENAS 1271,Paternal,Comuna 15,-58.469666,-34.591473
176,ASOCIACION ATLETICA ARGENTINOS JUNIORS,CLUB,club,Asociacion Atletica Argentinos Juniors,ANEXO ESTADIO DIEGO ARMANDO MARADONA,Gavilán 2151,4581-1243,,AAAJOficial,www.argentinosjuniors.com.ar - www.eltemplodelfútbol.com.ar,FUTBOL. Colonia de vacaciones.,Estadio - Museo,GAVILAN,2151,GAVILAN 2151,Villa Gral. Mitre,Comuna 11,-58.473316,-34.606146
175,ASOCIACION ATLETICA ARGENTINOS JUNIORS,CLUB,club,Asociacion Atletica Argentinos Juniors,ANEXO COMPLEJO FUTBOLISTICO,Av. Lafuente 2105,,,AAAJOficial,www.argentinosjuniors.com.ar,FUTBOL. Colonia de vacaciones.,"Complejo Futbolístico: Centro de Entrenamiento y Formación del Futbol Amateur (C.E.F.F.A.) Un predio de primer nivel. De Lunes a Viernes asisten más de 350 chicos, desde la reserva hasta las categorías menores de infantiles. El personal se compone de 1 Intendente y 8 empleados. Todas las divisiones tienen ropa de entrenamiento. Superficie: 90.000 m2 aproximadamente / Cantidad de canchas: 5 de césped natural / Estacionamiento con capacidad de 300 vehículos / Obras previstas: Cancha de césped sintético. Equipamiento: 5 Riego por aspersión en las 5 canchas. / 1 arenero para entrenamiento de arqueros / 1 cancha de fútbol 8 / 1 confitería / 4 vestuarios con sus correspondientes utilerías. / 1 salón utilizado como cambiador de infantiles / 1 vestuario para árbitros / 1 vestuario para técnicos / 1 Oficina para coordinadores / 2 habitaciones para concentración para 24 personas / 1 consultorio médico / 1 depósito para materiales de entrenamiento / 1 lavandería / 1 gimnasio / 1 tribuna sobre la cancha Nro.1, capacidad: 400 personas.",LAFUENTE AV.,2105,LAFUENTE AV. 2105,Villa Soldati,Comuna 8,-58.453502,-34.651102
290,ASOCIACION ATLETICA PARQUE CHACABUCO,CLUB DE BARRIO,club_de_barrio,Asociacion Atletica Parque Chacabuco,UNICA - ADMINISTRATIVA,DAVILA 1330 3º Piso A,,aapchacabuco@gmail.com,Asociacion Atletica Parque Chacabuco,,Atletismo,Entrenan en el Polideportivo Chacabuco,Asamblea,,ASAMBLEA AV. y CURAPALIGUE AV.,Parque Chacabuco,Comuna 7,-58.445878,-34.636654
215,ASOCIACION ATLETICO PRIMERA JUNTA,CLUB DE BARRIO,club_de_barrio,Asociacion Atletico Primera Junta,,Zuviria 250,4922-1796,,,,"baby, futsal, fútbol femenino, murga",1 cancha - 1 salon,ZUVIRIA,250,ZUVIRIA 250,Parque Chacabuco,Comuna 7,-58.429907,-34.628853
99,ASOCIACION BANCARIA,CLUB,club,Asociacion Bancaria,SEDE ADMINISTRATIVA (Y TIENEN ANEXOS EN PROVINCIA),Maipu 62 3º 0f 17,4343-6126 / 4342-2117,abadargentina@gmail.com,ASOCIACION BANCARIA ARGENTINA DE DEPORTES,www.abadargentina.com.ar,"Fútbol, básquet, tenis, tiro, pesca, voley, bowling, golf y ajedrez.","Sin instalaciones, utilizan instalaciones de asociaciones y clubes miembros",MAIPU,62,MAIPU 62,San Nicolas,Comuna 1,-58.376486,-34.607487
118,ASOCIACION CIRCULO ITALO ARGENTINO LIBER PIEMONT,CLUB DE BARRIO,club_de_barrio,Asociacion Circulo Italo Argentino Liber Piemont,UNICA,Gral. Manuel Rodriguez 1191,4581-5189,,,,"Yoga, artes marciales, tango, billar, gimnasia, danzas clásicas, clases de tango y folklore. Actividades culturales.",cancha - salones - biblioteca,"RODRIGUEZ, MANUEL A., GENERAL",1191,"RODRIGUEZ, MANUEL A., GENERAL 1191",Caballito,Comuna 6,-58.448289,-34.607685
65,ASOCIACION CIVIL CLUB ATLETICO SOCIAL Y DEPORTIVO DEFENSORES DE OBRA SOCIAL FERROVIARIA DOSFE,CLUB DE BARRIO,club_de_barrio,Asociacion Civil Club Atletico Social Y Deportivo Defensores De Obra Social Ferroviaria Dosfe,UNICA,Reservistas Argentinos 195,4641-2455,,,,"Fútbol, voley, bochas, ajedrez.",,RESERVISTAS ARGENTINOS,195,RESERVISTAS ARGENTINOS 195,Liniers,Comuna 9,-58.521336,-34.637176
13,ASOCIACION CIVIL CLUB HIPICO BUENOS AIRES,CLUB DE BARRIO,club_de_barrio,Asociacion Civil Club Hipico Buenos Aires,UNICA,"Figueroa Alcorta 4800 esquina Belisario Roldán, enfrente del viejo Velódromo (hoy el Club CUBA)",4777-1222,clubhipicobsas@hotmail.com,,,hipismo - escuela de equitacion desde 6 años hasta adolescentes - equinoterapia,1 salon - 2 pistas de hipismo,"FIGUEROA ALCORTA, PRES. AV.",4800,"FIGUEROA ALCORTA, PRES. AV. 4800",Palermo,Comuna 14,-58.415532,-34.569093
216,ASOCIACION CIVIL CLUB SOCIAL Y CULTURAL MIRAFLORES,CLUB DE BARRIO,club_de_barrio,Asociacion Civil Club Social Y Cultural Miraflores,,Somellera 1770,4382-5931,,,,"baby, futsal, patin, natacion, tenis",1 salon - 1 cancha - cancha de tenis,SOMELLERA,1770,SOMELLERA 1770,Parque Chacabuco,Comuna 7,-58.436806,-34.644058
287,"ASOCIACION CIVIL DE AYUDA, RECREATIVA Y POLIDEPORTIVA 17 DE NOVIEMBRE",CLUB DE BARRIO,club_de_barrio,"Asociacion Civil De Ayuda, Recreativa Y Polideportiva 17 De Noviembre",,Calle 4 y 5  Villa 31,,poli_31@hotmail.com,,,"baby, basket, voley",1 cancha,perette carlos,,"PERETTE, CARLOS H. y WALSH, RODOLFO",Retiro,Comuna 1,-58.375532,-34.584277
55,ASOCIACION CIVIL DE VECINOS FLORENTINO AMEGHINO (AVEFA),CLUB DE BARRIO,club_de_barrio,Asociacion Civil De Vecinos Florentino Ameghino (Avefa),UNICA,Independencia 4246,4922-2501 a partir de las 17 hs hasta las 24 hs,,SOYDEADEFA,,"Baby, futsal, yoga. Actividades culturales.",cancha - biblioteca,INDEPENDENCIA AV.,4246,INDEPENDENCIA AV. 4246,Boedo,Comuna 5,-58.425973,-34.621898
292,ASOCIACIÓN CIVIL LA CULTURA DEL BARRIO,CLUB DE BARRIO,club_de_barrio,Asociación Civil La Cultura Del Barrio,UNICA,Murillo 957,2053-9867,boxeo.lcdb@gmail.com,,,"Taekwondo, boxeo, kick boxing, yoga, muay thai, Jiu jitsu, gimnasia funcional, ping pong.",,Murillo ,957,MURILLO 957,Villa Crespo,Comuna 15,-58.446179,-34.598391
291,ASOCIACION CIVIL MANO A MANO,CLUB DE BARRIO,club_de_barrio,Asociacion Civil Mano A Mano,UNICA,Bahía Blanca 105,4674-6262,asociacioncivil_manoamano@yahoo.com.ar,,,Baby futbol (recreativo y competitivo) niños y niñas de 4 a 13 años - Fútbol Femenino para mujeres a partir de los 17 años - Gimnasia recreativa infantil niños y niñas de 4 a 8 años,,Bahía Blanca,105,BAHIA BLANCA 105,Floresta,Comuna 10,-58.480982,-34.632039
194,ASOCIACION CIVIL OLIMPIA FUTBOL CLUB DE LA CIUDAD DE BUENOS AIRES,CLUB DE BARRIO,club_de_barrio,Asociacion Civil Olimpia Futbol Club De La Ciudad De Buenos Aires,,Tacuari 773,4307-163,,,,,,TACUARI,773,TACUARI 773,Monserrat,Comuna 1,-58.378838,-34.617144
198,"ASOCIACION CIVIL SARANDI SOCIAL, CULTURAL Y DEPORTIVA",CLUB DE BARRIO,club_de_barrio,"Asociacion Civil Sarandi Social, Cultural Y Deportiva",,Sarandi 1477,4308-0822,,,,"fútbol, voley, handbol, basquet",1 cancha,SARANDI,1477,SARANDI 1477,San Cristobal,Comuna 3,-58.393405,-34.626211
273,ASOCIACION CIVIL SIN FINES DE LUCRO GOLF CLUB LAGOS DE PALERMO,CLUB,club,Asociacion Civil Sin Fines De Lucro Golf Club Lagos De Palermo,,Av. Tornquist 6397,4774-5108,,,,golf,campo de golf,"TORNQUIST, ERNESTO AV.",6397,"TORNQUIST, ERNESTO AV. 6397",Palermo,Comuna 14,-58.435466,-34.555834
54,ASOCIACION CIVIL SOCIEDAD DE FOMENTO Y CULTURA MALVINAS ARGENTINAS,CLUB DE BARRIO,club_de_barrio,Asociacion Civil Sociedad De Fomento Y Cultura Malvinas Argentinas,UNICA,Eva Peron 1930,4923-1887,,,,"Taekwondo, ajedrez, yoga, actividades para jubilados, bachata, salsa, folklore. Actividades culturales.",biblioteca - 3 salones,"PERON, EVA AV.",1930,"PERON, EVA AV. 1930",Parque Chacabuco,Comuna 7,-58.449785,-34.636524
210,ASOCIACION CIVIL Y DEPORTIVA EL BARRIO,CLUB DE BARRIO,club_de_barrio,Asociacion Civil Y Deportiva El Barrio,,Constitucion 4253,4924-9291,,,,"baby, patin, voley, karate, murga, handbol",1 cancha - 1 salon,CONSTITUCION,4253,CONSTITUCION 4253,Boedo,Comuna 5,-58.424321,-34.629082
200,ASOCIACION CLUB ATLETICO BARRACAS CENTRAL,CLUB,club,Asociacion Club Atletico Barracas Central,,Luna 1211,4301-5855,info@barracascentral.com,,,"patin, voley, handbol, gimnasia deportiva, fútbol",cancha - salones - gimnasio,LUNA,1211,LUNA 1211,Barracas,Comuna 4,-58.396297,-34.647090
233,ASOCIACION CLUB ATLETICO IGUAZU,CLUB DE BARRIO,club_de_barrio,Asociacion Club Atletico Iguazu,,San Blas 4225,4639-5969,,,,baby (se realiza en el polideportivo Pomar),1 salon.,SAN BLAS,4225,SAN BLAS 4225,Floresta,Comuna 10,-58.495527,-34.620853
179,ASOCIACION CRISTIANA DE JOVENES DE LA REPUBLICA ARGENTINA,CLUB,club,Asociacion Cristiana De Jovenes De La Republica Argentina,ANEXO SEDE PARQUE,Av. Lafuente 2480,4918-3244,ymca@ymca.org.ar,YMCA Argentina,www.ymca.org.ar,"Fútbol (masculino y femenino), Básquet (masculino y femenino), Voley (masculino y femenino), Gimnasio de pesas, Gimnasio boutique, Escuela de natación (jóvenes y adultos), Pileta libre, Pista aeróbica, Aikido, Buceo, Escalada en roca, Karate, Kendo, Plataforma vibratoria, Rehabilitación cardiovascular, Tai Chi Chuan, Bicicleta, Pilates y Fitness (Localizada, Ritmos, Stretching, Box recreativo, YMCA Water, YMCA Dance, Aquagym, Aquamoving, Aquafitness, FyR 60', Local Stretch, Local Latin, Express stretchting, Express ABS, Espalda saludable, Yoga, Y circuit, Y functional, Y mix dance, Local cycle, Hatha Yoga, Power Yoga, Kick Boxing, Muay Thai, Running team, Aerolocal y Acuática). Colonia de vacaciones",3 gimnasios - 2 natatorios - 2 canchas - 3 salones,LAFUENTE AV.,2480,LAFUENTE AV. 2480,Villa Soldati,Comuna 8,-58.445876,-34.657045
178,ASOCIACION CRISTIANA DE JOVENES DE LA REPUBLICA ARGENTINA,CLUB,club,Asociacion Cristiana De Jovenes De La Republica Argentina,CENTRAL,Reconquista 439,4311-4785,ymca@ymca.org.ar,YMCA Argentina,www.ymca.org.ar,"Natacion, fútbol, voley, basquet, cursos de buceo, gimnasia, curso de guardavida, pesas, folklore, tango, golf en microcentro, escalada en roca. Colonia de vacaciones.",3 gimnasios - 2 natatorios - 2 canchas - 3 salones,RECONQUISTA,439,RECONQUISTA 439,San Nicolas,Comuna 1,-58.372462,-34.602651
275,ASOCIACION CULTURAL Y DEPORTIVA BARKOJBA,CLUB,club,Asociacion Cultural Y Deportiva Barkojba,SEDE ADMINISTRATIVA CAPITAL - PREDIO DEPORTIVO EN MORENO,Av. Córdoba 3621 1º B,4862-6204,administracion@barkojba.com,,www.barkojba.com,"futsal, gimnasia, fútbol 11, tenis, hockey,",3 canchas - 2 salones - 1 natatorio,CORDOBA AV.,3621,CORDOBA AV. 3621,Palermo,Comuna 14,-58.417815,-34.597726
260,ASOCIACION CULTURAL Y DEPORTIVA ESTRELLA,CLUB DE BARRIO,club_de_barrio,Asociacion Cultural Y Deportiva Estrella,,Superi 4437,S/T,,,,"gimnasia, ceramica",gimnasio  - biblioteca,SUPERI,4437,SUPERI 4437,Saavedra,Comuna 12,-58.482998,-34.547467
224,ASOCIACION DE FOMENTO CORVALAN Y BIBLIOTECA POPULAR EMILIO CASTRO ANEXO ALFONSINA STORNI,CLUB DE BARRIO,club_de_barrio,Asociacion De Fomento Corvalan Y Biblioteca Popular Emilio Castro Anexo Alfonsina Storni,,Tapalque 5147,4635-4218,clubcorvalan@yahoo.com.ar  -  deportecorvalan@hotmail.com,,,"baby, patin, artes marciales",1 cancha - 1 gimnasio - 1 salon,TAPALQUE,5147,TAPALQUE 5147,Mataderos,Comuna 9,-58.494668,-34.648620
225,ASOCIACION DE FOMENTO EDILICIA Y CULTURAL CORONEL CARDENAS,CLUB,club,Asociacion De Fomento Edilicia Y Cultural Coronel Cardenas,,Cardenas 2910,4686-3465,,,,"baby, fútbol femenino, fútbol, patin, danza, tango, folklore, danzas arabes",2 natatorios - 1 cancha - 3 salones,"CARDENAS, CNEL. AV.",2910,"CARDENAS, CNEL. AV. 2910",Mataderos,Comuna 9,-58.500352,-34.669615
18,ASOCIACION DE FOMENTO JOSE SOLDATI,CLUB DE BARRIO,club_de_barrio,Asociacion De Fomento Jose Soldati,UNICA,Av. La Fuente 2931,4918-6132,soldatijose@hotmail.com.ar,,,"Baby fútbol, patin artistico y competitivo, acrobacia con telas, Chaiu-Do-Kwan.",cancha - salon,LAFUENTE,2931,LAFUENTE 2931,Villa Soldati,Comuna 8,-58.441381,-34.660747
276,ASOCIACION DE FOMENTO PARQUE CHAS,CLUB DE BARRIO,club_de_barrio,Asociacion De Fomento Parque Chas,,Bauness 1486,4523-2981,,,,"yoga, baby, gimnasia, tango, patin",,BAUNESS,1486,BAUNESS 1486,Parque Chas,Comuna 15,-58.480127,-34.584190
293,ASOCIACIÓN DE FOMENTO PARQUE CHAS,CLUB DE BARRIO,club_de_barrio,Asociación De Fomento Parque Chas,DEPORTIVA,Gándara 2840,4524-7926,,A F Parque Chas Equipo Deportivo,www.afparquechas.com.ar,"Fútbol, yoga, baby, gimnasia, tango, patin, artes marciales",,Gandara,2840,GANDARA 2840,Parque Chas,Comuna 15,-58.481020,-34.583324
294,ASOCIACIÓN ESPAÑOLA DE SOCORROS MUTUOS DE SAN JOSÉ DE FLORES,CLUB DE BARRIO,club_de_barrio,Asociación Española De Socorros Mutuos De San José De Flores,UNICA,Pedernera 143,4637-7730,aedsmdsjdf@gmail.com,,,"Fútbol, pelota paleta, baby, taekwondo, kobu do, yoga, karate, taichichuan. Gimnasia rítmica.",,PEDERNERA,143,PEDERNERA 143,Flores,Comuna 7,-58.463447,-34.630963
66,ASOCIACION SCHOLEM ALEIJEM,CLUB,club,Asociacion Scholem Aleijem,SEDE DEPORTIVA (TIENE DOS ANEXOS EN PROVINCIA),Maturin  2455,4582-5719,administracion@sholem.org.ar,,www.sholem.org.ar,"Voley masculino y femenino, basket masculino, fútbol de campo, fútbol de salón, gimnasia deportiva, taekwondo.",salones - canchas,MATURIN,2455,MATURIN 2455,Paternal,Comuna 15,-58.461145,-34.599874
254,ASOCIACION URQUIZA TENIS CLUB (ANTES ASOCIACION CLUB ATLETICO URQUIZA),CLUB,club,Asociacion Urquiza Tenis Club (Antes Asociacion Club Atletico Urquiza),,Caracas 4935,4573-3501,utc@fibertel.com.ar,,,"tenis, karate, bochas","1 cancha de bochas, 1 de fútbol 5, 1 salon, natatorio, 5 canchas de tenis  (4 de polvo de ladrillo y una de cemento)",CARACAS,4935,CARACAS 4935,Villa Pueyrredon,Comuna 12,-58.497221,-34.580001
253,ASOCIACION VECINAL DE FOMENTO Y CULTURA SANTA RITA,CLUB DE BARRIO,club_de_barrio,Asociacion Vecinal De Fomento Y Cultura Santa Rita,UNICA,San Blas 2842,4584-4874,,,,"Artes Marciales, gimnasia jazz, danzas, juegos de mesa",,SAN BLAS,2842,SAN BLAS 2842,Villa Santa Rita,Comuna 11,-58.480637,-34.611045
255,ASOCIACION VECINAL LOMAS DE SAAVEDRA,CLUB DE BARRIO,club_de_barrio,Asociacion Vecinal Lomas De Saavedra,,Pico 3540,4541-0777,,,,artes marciales,1 cancha - 1 salon,PICO,3540,PICO 3540,Saavedra,Comuna 12,-58.485407,-34.544998
256,ASOCIACION VECINAL PRO-FOMENTO DE SAAVEDRA Y BIBLIOTECA POPULAR (El Pañuelito),CLUB DE BARRIO,club_de_barrio,Asociacion Vecinal Pro-Fomento De Saavedra Y Biblioteca Popular (El Pañuelito),,Jaramillo 3446,4541-2810 / 4543-2119,,,,"baby, basket, voley, gimnasia (musculacion)",1 cancha 20x14 descubierta - 1 salon,JARAMILLO,3446,JARAMILLO 3446,Saavedra,Comuna 12,-58.478179,-34.553020
143,"ASOCIACION VECINAL VILLA GENERAL MITRE, BIBLIOTECA POPULAR CIENCIA Y LABOR",CLUB DE BARRIO,club_de_barrio,"Asociacion Vecinal Villa General Mitre, Biblioteca Popular Ciencia Y Labor",UNICA,Gral. Cesar Diaz 2451,4582-9779,cienciaylabor@gmail.com,Biblioteca Ciencia y Labor - Pagina Oficial Club social,,"Baby, taekwondo, salsa, tango, folklore, ritmos latinos, danza jazz, patin, fútbol femenino. Actividades culturales.",1 cancha y 2 salones,"DIAZ, CESAR, GRAL.",2451,"DIAZ, CESAR, GRAL. 2451",Villa Gral. Mitre,Comuna 11,-58.473381,-34.611388
81,ATENEO POPULAR VERSAILLES,CLUB DE BARRIO,club_de_barrio,Ateneo Popular Versailles,UNICA,Roma 950,4641-0112,nuevoapv@yahoo.com.ar,,www.ateneoversailles.com.ar,"Baby, voley, gimnasia, artes marciales, danza, cestobal, natación, tenis, boxeo.",biblioteca - natatorios - canchas - salones,ROMA,950,ROMA 950,Versalles,Comuna 10,-58.522419,-34.625815
87,ATLANTA,CLUB,club,Atlanta,UNICA,Humboldt 374,4856-5999,club_atlanta@hotmail.com,,,"Baby fútbol, futsal, boxeo, artes marciales, musculacion, patin, fútbol 11, voley, basquet.",natatorios - salones - canchas - bibliotecas,HUMBOLDT,374,HUMBOLDT 374,Villa Crespo,Comuna 15,-58.448574,-34.595312
174,ATLETICO HURACAN,CLUB,club,Atletico Huracan,ANEXO 2  LA QUEMITA,Mariano Acosta 1981,4637-6395,,Club Atletico Huracan,www.cahuracan.com,"Taekwondo, voley, patin, basket, futsal, boxeo, gimnasia aerobica y artistica, handbol, hockey (sobre cesped - sobre patines), tango, natacion, fútbol profesional y fútbol amateur. Actividades culturales. Colonia de vacaciones.","La Quemita, cuenta con 8 canchas de fútbol, en las cuales entrenan el primer equipo y las divisiones inferiores, que también juegan sus partidos de local allí. Entre otras instalaciones, se encuentran: una cancha de hockey sobre césped, cancha de tenis de cemento, cancha de vóley, dos piletas de natación, mesas, parrillas, quinchos y un amplio estacionamiento para 150 vehículos. El campo de deportes se encuentra abierto todos los días de la semana a partir de las 9 hs. Los socios de Huracán ingresan sin cargo. ","ACOSTA, MARIANO",1981,"ACOSTA, MARIANO 1981",Flores,Comuna 7,-58.461059,-34.650940
173,ATLETICO HURACAN,CLUB,club,Atletico Huracan,ANEXO 1 ESTADIO DUCO,Amancio Alcorta 2570,4942-1965,,Club Atletico Huracan,www.cahuracan.com,"Taekwondo, voley, patin, basket, futsal, boxeo, gimnasia aerobica y artistica, handbol, hockey (sobre cesped - sobre patines), tango, natacion, fútbol profesional y fútbol amateur. Actividades culturales. Colonia de vacaciones.","Estadio Tomas A. Ducó, llamado así por quien fue el impulsor de su construcción, fue declarado por la Legislatura como Patrimonio Histórico y de Defensa Estructural de la Ciudad de Buenos Aires, en el año 2007 bajo el número de expediente 62.548. // Capacidad: 48.314 espectadores // Dimensiones: 105 mts x 70 mts
","ALCORTA, AMANCIO AV.",2570,"ALCORTA, AMANCIO AV. 2570",Parque Patricios,Comuna 4,-58.396867,-34.642945
172,ATLETICO HURACAN,CLUB,club,Atletico Huracan,CENTRAL SEDE SOCIAL,Avda. Caseros 3159,4911-9313/4719/6713,,Club Atletico Huracan,www.cahuracan.com,"Taekwondo, voley, patin, basket, futsal, boxeo, gimnasia aerobica y artistica, handbol, hockey (sobre cesped - sobre patines), tango, natacion, fútbol profesional y fútbol amateur. Actividades culturales. Colonia de vacaciones.",,CASEROS AV.,3159,CASEROS AV. 3159,Parque Patricios,Comuna 4,-58.408140,-34.637477
35,ATLETICO LA PATERNAL,CLUB DE BARRIO,club_de_barrio,Atletico La Paternal,UNICA,Fragata Sarmiento 1951,4581-2558,calapaternal@hotmail.com,,,"Fútbol, Paleta, Taekwondo, Patín artístico, Muay Thai, Roller derby y Vóley",cancha - salones,FRAGATA PRES. SARMIENTO,1951,FRAGATA PRES. SARMIENTO 1951,Paternal,Comuna 15,-58.459721,-34.603331
67,ATLETICO LUGANO,CLUB DE BARRIO,club_de_barrio,Atletico Lugano,UNICA,Cafayate 4155,4602-0196 y 4601-8214,clublugano@telecentro.com.ar,,,"Baby, basquet, voley, handbol, gimnasia aerobica, iniciacion deportiva.",cancha - salones,CAFAYATE,4155,CAFAYATE 4155,Villa Lugano,Comuna 8,-58.477379,-34.678098
72,BARRACAS JUNIORS,CLUB DE BARRIO,club_de_barrio,Barracas Juniors,UNICA,Gral Hornos 1850,4301-7285  4301-0948,barracasjuniors@yahoo.com,,,"Tenis, padel, fútbol, taekwondo, gimnasia femenina. Academias infantiles de tenis, básquet y fútbol. Actividades culturales.",canchas - salones - gimnasio,"HORNOS, GRAL.",1850,"HORNOS, GRAL. 1850",Barracas,Comuna 4,-58.374005,-34.647671
153,BELGRANO,CLUB DE BARRIO,club_de_barrio,Belgrano,UNICA,Arribeños 1701,4784-8180   4787-2680,clubbelgrano@fibertel.com.ar,,www.clubbelgrano.org.ar,"Futbol, gimnasio, bridge, pelota paleta, natación en verano, tenis, paddle, squash.",1 cancha de fútbol papi fútbol,ARRIBEÑOS,1701,ARRIBEÑOS 1701,Belgrano,Comuna 13,-58.447321,-34.561578
37,BIBLIOTECA GENERAL ARTIGAS,CLUB DE BARRIO,club_de_barrio,Biblioteca General Artigas,UNICA,Navarro 2544,4575-4459 / 4571-1370,artigasclub@gmail.com,BIBLIOTECA GENERAL ARTIGAS (OFICIAL),,"baby fútbol, patin, taekwondo, musculacion, voley, gimnasia, tango",cancha - salones - gimnasio - biblioteca,NAVARRO,2544,NAVARRO 2544,Agronomia,Comuna 15,-58.490882,-34.591782
226,BIBLIOTECA Y ASOCIACION VECINAL DE FOMENTO NUEVA CHICAGO,CLUB DE BARRIO,club_de_barrio,Biblioteca Y Asociacion Vecinal De Fomento Nueva Chicago,,Av. De Los Corrales 7201,4686-6151,,,,"baby, patin, gimnasia, danza, otros","1 cancha, 1 salon",DE LOS CORRALES AV.,7201,DE LOS CORRALES AV. 7201,Mataderos,Comuna 9,-58.506009,-34.667210
97,BOCHIN CLUB,CLUB DE BARRIO,club_de_barrio,Bochin Club,UNICA,Julian Alvarez 2355,4823-7507,clubelbochin@gmail.com,,,"Pelota Paleta, Arquería, Yoga. Actividades culturales.",canchas - salones,"ALVAREZ, JULIAN",2355,"ALVAREZ, JULIAN 2355",Palermo,Comuna 14,-58.416263,-34.587767
158,BOEDO BILLAR CLUB,CLUB DE BARRIO,club_de_barrio,Boedo Billar Club,UNICA,Medrano 468,4982-6307/6545,boedobillarclub@fibertel.com.ar,,,billar,2 salones,MEDRANO AV.,468,MEDRANO AV. 468,Almagro,Comuna 5,-58.421325,-34.605501
20,BRISAS DE LINIERS,CLUB DE BARRIO,club_de_barrio,Brisas De Liniers,UNICA,Montiel 1374/82,4644-3552,,,,"baby, artes marciales, gimnasia, yoga",salon - cancha,MONTIEL,1374,MONTIEL 1374,Liniers,Comuna 9,-58.522468,-34.653728
60,BRISAS DEL SUD,CLUB DE BARRIO,club_de_barrio,Brisas Del Sud,UNICA,Guardia Nacional 1956,4635-1444,,,,"Fútbol, patín,voley, natación cubierta y descubierta, gimnasia adultos e infantil, artes marciales, gim deportiva. Actividades culturales.",Cancha - Gimnasio -  Salones -  Natatorios,GUARDIA NACIONAL,1956,GUARDIA NACIONAL 1956,Mataderos,Comuna 9,-58.483939,-34.654987
78,BUENOS AIRES SUR,CLUB DE BARRIO,club_de_barrio,Buenos Aires Sur,UNICA,Cochabamba 3650,4956-0487  (desde las 17.30 hs),,CLUB BUENOS AIRES SUR,,"Fútbol infantil (FAFI, FEFI y escuelita), Vóley femenino (adultas) y Taekwondo (infantil y adultos)",canchas - salon,COCHABAMBA,3650,COCHABAMBA 3650,Boedo,Comuna 5,-58.416740,-34.627083
128,CABALLITO JUNIORS,CLUB DE BARRIO,club_de_barrio,Caballito Juniors,UNICA,Nicasio Oroño 566,4431-9600,caballito566@hotmail.com,,,"Fútbol (escuelita y FAFI), Futsal (AFA), Gimnasia postural, Gimnasia deportiva y Taekwondo.",2 canchas - 1 salon,"OROÑO, NICASIO",566,"OROÑO, NICASIO 566",Caballito,Comuna 6,-58.452407,-34.617612
191,CACHO LABORDE,CLUB DE BARRIO,club_de_barrio,Cacho Laborde,UNICA,Luna 1547,,,,,"Futbol infantil y juvenil de 4 a 14 años, fútbol para adultos. Actividades culturales.",Cancha de fútbol 11 - SUM,LUNA,1547,LUNA 1547,Barracas,Comuna 4,-58.395381,-34.652104
129,CALIFORNIA,CLUB DE BARRIO,club_de_barrio,California,UNICA,Andonaegui 3347,4541-9670,,,,"Baby fútbol, patín, voley, taekwondo, pilates.",1 cancha - 1 salon,ANDONAEGUI,3347,ANDONAEGUI 3347,Villa Urquiza,Comuna 12,-58.496493,-34.567986
119,CAPOEIRA,CLUB DE BARRIO,club_de_barrio,Capoeira,UNICA,Padilla 1008,4857-2851,eventos@capoeira.com,,www.capoeira.com.ar,"Baby, basket, gimnasia deportiva, tango, hockey, tenis.",canchas - salones - natatorio,PADILLA,1008,PADILLA 1008,Villa Crespo,Comuna 15,-58.445849,-34.597090
201,CATALINAS SUR ASOCIACION,CLUB,club,Catalinas Sur Asociacion,,Pi y Margal 671,4300-5159,,,,"futsal, padel, natacion","2 natatorios, 3 canchas y 2 salones",PI Y MARGALL,671,PI Y MARGALL 671,Boca,Comuna 4,-58.365418,-34.626991
296,CENTRO ANDINO BUENOS AIRES,CLUB DE BARRIO,club_de_barrio,Centro Andino Buenos Aires,UNICA,Rivadavia 1255,4381-1566,info@caba.org.ar,,www.caba.org.ar,"Boulder y palestra
",,RIVADAVIA AV,1255,RIVADAVIA AV. 1255,San Nicolas,Comuna 1,-58.384261,-34.608611
277,CENTRO COMUNITARIO KADIMA,CLUB,club,Centro Comunitario Kadima,SEDE ADMINISTRATIVA - PREDIO DEPORTIVO EN MORENO,"Honorio Pueyrredon 1552 7º C"" """,4586-4829,,,,"fútbol, aerobic, tenis, yoga",cancha - natatorio,"PUEYRREDON, HONORIO, DR. AV.",1552,"PUEYRREDON, HONORIO, DR. AV. 1552",Villa Crespo,Comuna 15,-58.449294,-34.603368
2,CENTRO NAVARRO DE BUENOS AIRES,CLUB DE BARRIO,club_de_barrio,Centro Navarro De Buenos Aires,,Moreno 3682,4932-7518,centronavarro@fibertel.com.ar,Centro Navarro de Buenos Aires Organización,www.centronavarro.org,"Pelota paleta, danzas navarras, taekwondo. Actividades culturales.",1 cancha - 1 salon - Biblioteca,MORENO,3682,MORENO 3682,Almagro,Comuna 5,-58.418271,-34.614729
267,CENTRO RECREATIVO MUNICIPAL,CLUB DE BARRIO,club_de_barrio,Centro Recreativo Municipal,,C. Rivadavia 1350,4702-2409/8299 y 4701-3196,,,,,"Parque de 7 hectareas, sector de camping con quinchos, parrillas, campos de deportes, canchas de fútbol, vóley, canchas de tenis de polvo de ladrillo,  piscina y solarium. 2 salones.","RIVADAVIA MARTIN, COMODORO",1350,"RIVADAVIA MARTIN, COMODORO 1350",Nuñez,Comuna 13,-58.461024,-34.539409
295,CENTRO RECREATIVO TOQUE Y TOQUE,CLUB DE BARRIO,club_de_barrio,Centro Recreativo Toque Y Toque,UNICA,Zelada 4642,,,,Toque y Toque FC,Fútbol infantil competitivo (F.E.F.I) con participación de 150 niños de 4 a 12 años - Fútbol infantil recreativo y formativo (AEFI) con participación de 200 niños de 4 a 18 años,,ZELADA,4642,ZELADA 4642,Villa Luro,Comuna 10,-58.491957,-34.641509
56,CHARRUA,CLUB DE BARRIO,club_de_barrio,Charrua,UNICA,Charrua  3536,4919-2648,,,,DEFENSA PERSONAL,salon,CHARRUA,3536,CHARRUA 3536,Nueva Pompeya,Comuna 4,-58.425013,-34.658870
40,CICLISTA NACION,CLUB DE BARRIO,club_de_barrio,Ciclista Nacion,SEDE ADMINISTRATIVA,Godoy Cruz 1209,4777-3232,clubciclistanacion@yahoo.com.ar,,,"Actividades de Ciclismo, competencias de ciclismo clasicas. Criterium de apertura que inicia la actividad de temporada de ruta, cuya prueba mas importante es la Doble bragado.",Sin instalaciones.,GODOY CRUZ,1209,GODOY CRUZ 1209,Villa Crespo,Comuna 15,-58.438950,-34.591013
246,CIRCULO CATOLICO DE OBREROS DE VILLA DEVOTO,CLUB DE BARRIO,club_de_barrio,Circulo Catolico De Obreros De Villa Devoto,,Habana 4568,4501-3839,,,,"Baby fútbol, Gimnasia, Artes Marciales, Tenis","Canchas, 2 Salones, 2 Natatorios (uno para niños) climatizados",HABANA,4568,HABANA 4568,Villa Devoto,Comuna 11,-58.520157,-34.602069
32,CIRCULO DE AJEDREZ TORRE BLANCA,CLUB DE BARRIO,club_de_barrio,Circulo De Ajedrez Torre Blanca,,Sanchez de Bustamante 587,4862-3161,circulotorreblanca@fibertel.com.ar,,,ajedrez,,SANCHEZ DE BUSTAMANTE,587,SANCHEZ DE BUSTAMANTE 587,Almagro,Comuna 5,-58.414309,-34.603161
152,CIRCULO DE VILLA DEVOTO,CLUB DE BARRIO,club_de_barrio,Circulo De Villa Devoto,UNICA,Pedro Moran  4151,4501-0501,circulo@fibertel.com.ar,,www.circulo-devoto.com.ar,"Fútbol infantil, Fútbol 11 (juveniles), Handball, Patín, Taekwondo, Gimnasia rítmica, Escuela de tenis, Musculación, Gimnasia para damas (aerolocal, localizada y funcional), Indoor, Pilates, Ajedrez, Estimulación deportiva. Actividades culturales.",3 canchas - 1 salon - natatorio,"MORAN, PEDRO",4151,"MORAN, PEDRO 4151",Villa Devoto,Comuna 11,-58.511536,-34.602133
92,CÍRCULO LA PATERNAL,CLUB DE BARRIO,club_de_barrio,Círculo La Paternal,UNICA,Paz Soldan 5035,4553-4137,circulolapaternal@hotmail.com,circulo la paternal,,"Baby, Patín, Voley, Gimnasia, Artes marciales, Pelota paleta, Fútbol femenino, Fútbol masculino infantil. Artes marciales, Gimnasia, MMA (artes marciales mixtas combinadas con gimnasia), Entrenamiento funcional con aparatos. Danzas, iniciación a danza clásica. Actividades culturales",canchas - salones,PAZ SOLDAN,5035,PAZ SOLDAN 5035,Paternal,Comuna 15,-58.469067,-34.594546
187,CIRCULO MARTIN FIERRO,CLUB DE BARRIO,club_de_barrio,Circulo Martin Fierro,UNICA,Cochabamba 3536,4932-7362,,circulo martin fierro (grupo publico),,"baby, futsal, voley, handbol",1 cancha de fútbol 24x17m,COCHABAMBA,3536,COCHABAMBA 3536,Boedo,Comuna 5,-58.415074,-34.626894
269,CIRCULO POLICIA FEDERAL,CLUB,club,Circulo Policia Federal,SEDE CAMPO LIBERTADOR,Av. Del Libertador 7801,4702-2253/9387,info@cpf.org.ar,Club Círculo Policía Federal,www.cpf.org.ar,"futsal, patin, voley, hockey, natacion, artes marciales",4 natatorios (1 cubierto) - 2  canchas - 4 salones,DEL LIBERTADOR AV.,7801,DEL LIBERTADOR AV. 7801,Nuñez,Comuna 13,-58.462027,-34.542580
14,CIRCULO POLICIA FEDERAL,CLUB,club,Circulo Policia Federal,SEDE CRIO. GRAL. R. O. SCHULLER,Santiago de Calzadilla 1350,,info@cpf.org.ar,Club Círculo Policía Federal,www.cpf.org.ar,"futsal, patin, voley, hockey, natacion, artes marciales",4 natatorios (1 cubierto) - 2  canchas - 4 salones,"CALZADILLA, SANTIAGO",1350,"CALZADILLA, SANTIAGO 1350",Nuñez,Comuna 13,-58.463030,-34.535964
1,CIRCULO POLICIA FEDERAL,CLUB,club,Circulo Policia Federal,SEDE SOCIAL,San Martín 353,4394-2409,info@cpf.org.ar - cpf@iplnmail.com.ar,Club Círculo Policía Federal,www.cpf.org.ar,"futsal, patin, voley, hockey, natacion, artes marciales",4 natatorios (1 cubierto) - 2  canchas - 4 salones,SAN MARTIN,353,SAN MARTIN 353,San Nicolas,Comuna 1,-58.373791,-34.603799
241,CIRCULO RECREATIVO LA TREVISANA ASOCIACION DE RECREACION Y CULTURA,CLUB DE BARRIO,club_de_barrio,Circulo Recreativo La Trevisana Asociacion De Recreacion Y Cultura,,Benedetti 195,4601-3211,,,,"gimnasia, gimnasia deportiva, bochas",1 salon - cancha de bochas,"BENEDETTI, OSVALDO E., DIP.NAC.",195,"BENEDETTI, OSVALDO E., DIP.NAC. 195",Velez Sarsfield,Comuna 10,-58.482391,-34.636783
234,CIRCULO SOCIAL HEBREO ARGENTINO,CLUB,club,Circulo Social Hebreo Argentino,,Avellaneda 3545,4671-5234,informes@csha.org.ar,CSHA Una Pasión,www.csha.org.ar,"Baby, futsal, basquet, patin, voley, artes marciales. Actividades culturales.",2 canchas - 1 salon,AVELLANEDA AV.,3545,AVELLANEDA AV. 3545,Floresta,Comuna 10,-58.479333,-34.628330
242,CIRCULO  SOCIAL VALLE  MIÑOR,CLUB DE BARRIO,club_de_barrio,Circulo  Social Valle  Miñor,,Rafaela 4840,4683-3693,valminior@yahoo.com.ar,CIRCULO SOCIAL VALLE MIÑOR grupo publico,www.valminior.com.ar,"Bolos celtas, tai chi, biodanza, danzas gallegas, flamenco. Actividades culturales.",,RAFAELA,4840,RAFAELA 4840,Villa Luro,Comuna 10,-58.495216,-34.639463
50,CIRCULO SOCIAL VERTIZ,CLUB DE BARRIO,club_de_barrio,Circulo Social Vertiz,UNICA,Andonaegui 1246,4521-3580,,,,"futsal, gimnasia deportiva, artes marciales: Karate, kickbox, winshu. Gimnasia, ritmos latinos, voley. Danza para niñas, esferoterapia, streching, yoga. Apoyo escolar, pintura, centro de jubilados.",salon - cancha - gimnasio,ANDONAEGUI,1246,ANDONAEGUI 1246,Parque Chas,Comuna 15,-58.479094,-34.587898
3,CIRCULO SOCIAL Y DEPORTIVO DEL ONCE,CLUB DE BARRIO,club_de_barrio,Circulo Social Y Deportivo Del Once,UNICA,Moreno 2583/87,4942-4443,,CIRCULO DEL ONCE,,"Billar, taekwondo, pesca deportiva, yoga, relajacion, kung fu, backgammon, ajedrez.",3 salones,MORENO,2583,MORENO 2583,Balvanera,Comuna 3,-58.402785,-34.613298
122,CIRCULO URQUIZA,CLUB DE BARRIO,club_de_barrio,Circulo Urquiza,UNICA,F. D. Roosevelt 5345,4521-8873  4523-7506,,,www.cgunatacion.com.ar,"Pelota paleta, básquet masculino, voley femenino, taekwondo, gimnasia artística, patín, gimnasio aparatos, yoga, danzas orientales, gimnasia aeróbica, natación, gimnasia acrobática.",canchas - salones - natatorio,ROOSEVELT FRANKLIN D. AV.,5345,ROOSEVELT FRANKLIN D. AV. 5345,Villa Urquiza,Comuna 12,-58.490075,-34.575076
148,CLUB ARGENTINO DE AJEDREZ,CLUB DE BARRIO,club_de_barrio,Club Argentino De Ajedrez,UNICA,Paraguay 1858,4811-9412,club@argentinodeajedrez.org.ar,Club Argentino de Ajedrez - Oficial,www.www.argentinodeajedrez.org.ar,Ajedrez y Go,biblioteca - 2 salones,PARAGUAY,1858,PARAGUAY 1858,Recoleta,Comuna 2,-58.393960,-34.598711
244,CLUB ARGENTINO DE CAZA Y PESCA,CLUB DE BARRIO,club_de_barrio,Club Argentino De Caza Y Pesca,,Gral. Artigas 1925,S/T,,,,caza y pesca,,"ARTIGAS, JOSE GERVASIO, GRAL.",1925,"ARTIGAS, JOSE GERVASIO, GRAL. 1925",Villa Gral. Mitre,Comuna 11,-58.475708,-34.609407
206,CLUB ARTIGUENSES,CLUB DE BARRIO,club_de_barrio,Club Artiguenses,,Brasil 2546,4308-0050,,,,"baby, futsal",1 cancha,BRASIL,2546,BRASIL 2546,Parque Patricios,Comuna 4,-58.399762,-34.631422
237,CLUB ATLETICO ALL BOYS,CLUB,club,Club Atletico All Boys,CAMPO DE DEPORTES,Chivilcoy 1951,4639-8688,info@caallboys.com.ar,caallboys Equipo deportivo,www.caallboys.com.ar,"baby fútbol, futsal, basquet, patin, voley, gimnasia deportiva, boxeo, full contact. Actividades culturales.",,CHIVILCOY,1951,CHIVILCOY 1951,Monte Castro,Comuna 10,-58.497260,-34.616103
236,CLUB ATLETICO ALL BOYS,CLUB,club,Club Atletico All Boys,ESTADIO ISLAS MALVINAS,Alvarez Jonte 4180,4639-8688,info@caallboys.com.ar,caallboys Equipo deportivo,www.caallboys.com.ar,"baby fútbol, futsal, basquet, patin, voley, gimnasia deportiva, boxeo, full contact. Actividades culturales.",,ALVAREZ JONTE AV.,4180,ALVAREZ JONTE AV. 4180,Monte Castro,Comuna 10,-58.498253,-34.615871
235,CLUB ATLETICO ALL BOYS,CLUB,club,Club Atletico All Boys,SEDE SOCIAL,Mercedes 1950,4639-8688,info@caallboys.com.ar,caallboys Equipo deportivo,www.caallboys.com.ar,"baby fútbol, futsal, basquet, patin, voley, gimnasia deportiva, boxeo, full contact. Actividades culturales.",2 canchas - salones,MERCEDES,1950,MERCEDES 1950,Monte Castro,Comuna 10,-58.498184,-34.616966
245,CLUB ATLETICO BERNASCONI,CLUB DE BARRIO,club_de_barrio,Club Atletico Bernasconi,,Marcos Sastre 3195,4501-6462,,,,,,"SASTRE, MARCOS",3195,"SASTRE, MARCOS 3195",Villa Del Parque,Comuna 11,-58.491733,-34.605509
202,CLUB ATLETICO BOCA JUNIORS,CLUB,club,Club Atletico Boca Juniors,,Brandsen 805,4309-4700,cas@bocajuniors.com.ar,,www.bocajuniors.com.ar,"Boxeo, Balon, Bochas, basquet, voley, Futsal, gimnasia, pesas, judo, taekwondo, karate, lucha, atletismo, fútbol femenino",,BRANDSEN,805,BRANDSEN 805,Boca,Comuna 4,-58.364380,-34.636469
261,CLUB ATLETICO COMERCIO,CLUB DE BARRIO,club_de_barrio,Club Atletico Comercio,,Av. Libertador 7199,4701-5620,clubcomercio@ciudad.com.ar,Club Atletico Comercio Club deportivo,,tenis,10 canchas,DEL LIBERTADOR AV.,7199,DEL LIBERTADOR AV. 7199,Nuñez,Comuna 13,-58.457109,-34.546702
262,CLUB ATLETICO DEFENSORES DE BELGRANO,CLUB,club,Club Atletico Defensores De Belgrano,"SEDE SOCIAL Y ESTADIO JUAN PASQUALE"" , TIENEN OTRA SEDE EN PROVINCIA""",Comodoro Rivadavia 1450,4702-8967,info@defeweb.com.ar - institucional@defeweb.com.ar,,www.defeweb.com.ar,"boxeo, fútbol, gimnasia, natacion, pesas",natatorio - cancha de fútbol - salon,"RIVADAVIA MARTIN, COMODORO",1450,"RIVADAVIA MARTIN, COMODORO 1450",Nuñez,Comuna 13,-58.461698,-34.540063
247,CLUB ATLETICO ESTUDIANTES,CLUB,club,Club Atletico Estudiantes,"SECRETARÍA - ESTADIO EN CASEROS, PVCIA BS AS",Av. Beiro  5175,4568-5510,caestudiantes@yahoo.com.ar,,www.caestudiantes.com.ar,"Fútbol, fútbol femenino, handball, patín, taekwondo, karate do",gimnasio,"BEIRO, FRANCISCO AV.",5175,"BEIRO, FRANCISCO AV. 5175",Villa Devoto,Comuna 11,-58.523023,-34.612639
278,CLUB ATLETICO FENIX,CLUB DE BARRIO,club_de_barrio,Club Atletico Fenix,,Concepcion Arenal 3560,4771-4657,clubatleticofenix@yahoo.com.ar,,,"artes marciales, tango, folklore",2 salones - 1 cancha,"ARENAL, CONCEPCION",3560,"ARENAL, CONCEPCION 3560",Chacarita,Comuna 15,-58.446686,-34.584413
217,CLUB ATLETICO INDEPENDIENTE,CLUB,club,Club Atletico Independiente,SEDE CAPITAL Y OTRAS EN PROVINCIA,Boyaca  470,4633-5499 / 4633-7527,boyaca@clubaindependiente.com,Club Atlético Independiente Equipo deportivo,www.clubaindependiente.com,"Futsal, baby, taekwondo, danzas.",Dos vestuarios y un baño para discapacitados - buffet con patio de comidas - dos canchas de Fútbol 5 para la Escuela de Fútbol.,BOYACA AV.,470,BOYACA AV. 470,Flores,Comuna 7,-58.460248,-34.621705
279,CLUB ATLETICO LOS VIEJOS MUCHACHOS (N.O.B.),CLUB DE BARRIO,club_de_barrio,Club Atletico Los Viejos Muchachos (N.O.B.),,Avalos 1036,4523-5775,,,,"artes marciales, musculacion, tenis de mesa, teatro, tango, baby, basket, voley, gimnasia deportiva, danza. Actividades culturales.",3 salones,AVALOS,1036,AVALOS 1036,Parque Chas,Comuna 15,-58.473981,-34.587513
298,CLUB ATLÉTICO PIRAÑA,CLUB DE BARRIO,club_de_barrio,Club Atlético Piraña,UNICA,Elia 678,4911-8674 4912-4494,,,,"Baby, voley, futbol femenino, futsal, boxeo, taekwondo, kra magal, aero funcional.",,ELIA,678,ELIA 678,Parque Patricios,Comuna 4,-58.408203,-34.645358
257,CLUB ATLETICO PLATENSE,CLUB,club,Club Atletico Platense,"Anexo Alejandro Mariani Dólan""""",Crisologo Larralde 5195,4545-8358,,,www.cap.org.ar/,"fútbol, tenis, voley",4 canchas,"LARRALDE, CRISOLOGO AV.",5195,"LARRALDE, CRISOLOGO AV. 5195",Saavedra,Comuna 12,-58.494217,-34.562396
263,CLUB ATLETICO RIVER PLATE,CLUB,club,Club Atletico River Plate,,Av.Figueroa Alcorta 7597,4789-1200,club@cariverplate.com.ar,,www.cariverplate.com.ar,"basquet, voley, hockey (sobre cesped - sobre patines), tenis, natacion, gimnasia, fútbol femenino, handbol, cestoball, futsal, waterpolo",,"FIGUEROA ALCORTA, PRES. AV.",7597,"FIGUEROA ALCORTA, PRES. AV. 7597",Belgrano,Comuna 13,-58.449446,-34.546690
197,CLUB ATLETICO SAN LORENZO DE ALMAGRO,CLUB,club,Club Atletico San Lorenzo De Almagro,ANEXO ADMINISTRATIVO,Avda. Mayo 1373,4016-2600,socios@sanlorenzo.com.ar,San Lorenzo Equipo deportivo,www.sanlorenzo.com.ar,Departamentos de Atención al Socio y Prensa. Venta de entradas.,Venta de merchandising,DE MAYO AV.,1373,DE MAYO AV. 1373,Monserrat,Comuna 1,-58.385876,-34.609357
196,CLUB ATLETICO SAN LORENZO DE ALMAGRO,CLUB,club,Club Atletico San Lorenzo De Almagro,SEDE CIUDAD DEPORTIVA,Av. F. F. de la Cruz 2145,4918-8192,infociudad@sanlorenzo.com.ar,San Lorenzo Equipo deportivo,www.sanlorenzo.com.ar,"Tenis, Patín, Natación, Voley (masculino y femenino), Hockey sobre cesped, Hockey sobre patines, Basquet, Fútsal, Fútbol femenino, Fútbol recreativo, Bowling, Rugby","Sector de quinchos y parrillas - Zona de tres grandes natatorios, uno climatizado - Cancha de fútbol profesional con medidas reglamentarias de 100x70 - 6 canchas para fútbol amateur - Cancha de hockey sobre patines - Cancha de hockey sobre cesped - Cancha de handball - Cancha de tenis -  Restaurante ","FERNANDEZ DE LA CRUZ, F., GRAL. AV.",2145,"FERNANDEZ DE LA CRUZ, F., GRAL. AV. 2145",Flores,Comuna 7,-58.436476,-34.654438
195,CLUB ATLETICO SAN LORENZO DE ALMAGRO,CLUB,club,Club Atletico San Lorenzo De Almagro,SEDE BOEDO,Av. La Plata 1782,4016-2600,infolaplata@sanlorenzo.com.ar,San Lorenzo Equipo deportivo,www.sanlorenzo.com.ar,"Natación, Artes Marciales, Streching, Yoga y gimnasia",natatorio climatizado - gimnasio,LA PLATA AV.,1782,LA PLATA AV. 1782,Boedo,Comuna 5,-58.424425,-34.635941
190,CLUB ATLETICO VELEZ SARSFIELD,CLUB,club,Club Atletico Velez Sarsfield,ANEXO POLIDEPORTIVO,Av. Juan B. Justo 8900,4641-5663/5763/4014,velezsocios@velezsarsfield.com.ar,Club Atlético Vélez Sarsfield,www.velezsarsfield.com.ar,"Fútbol Profesional y Amateur, Voley, Básquet, Ajedrez, Yoga, Aerobismo, Atletismo, Béisbol, Bochas, Bocchia, Cestoball, Gimnasia Acrobática, Gimnasia Artística, Gimnasia Aeróbica, Gimnasia Integral, Gimnasia Masculina Mayores, Hockey sobre Césped, Hockey sobre Patines, Judo, Karate, Kung Fu, Levantamiento Olímpico, Musculación, Natación, Paddle, Patín Artístico, Patín Carrera, Pesca Deportiva, Ciclismo, Handball y Tenis. Actividades culturales.","COMPLEJO ACUÁTICO DE VÉLEZ SARSFIELD: El Complejo Acuático posee dos natatorios (uno de los cuales es semi olímpico) de 12.50m x 25.00m, cuya superficie es de 312.50m3 cada uno. Las profundidades de los mismos son de 1.20m a 1.40m y de 1.80m a 2.00m. También cuenta con un tercer natatorio para niños, de 3.00m x 8.00m con una profundidad de 0.70m. También un natatorio descubierto que cuenta con una superficie aproximadamente de 1.300m3 y es de carácter recreativo. Por tal motivo, las profundidades oscilan entre 0.00m y 1.40m. En su interior cuenta con una fuente central. También posee una pileta para niños en forma de estrella. POLIDEPORTIVO: Canchas de fútbol auxiliares 1 y 2: Medidas oficiales.  Cancha fútbol auxiliar 3: Medidas no oficiales (tierra).  Canchas de fútbol de tierra: Dos canchas de tierra. Canchas de tenis: 11 canchas de polvo de ladrillo, dos cubiertas y todas con iluminación artificial. Frontones. Estadio de vóley ""Ana Petracca"": Miniestadio con capacidad para 350 personas. Nuevo piso de última generación. Cancha de Hockey sobre césped sintético de 91,40 mts. de largo x 55 mts. de ancho, ubicada en el polideportivo en el centro de la pista de atletismo. En uno de sus laterales posee gradas para la ubicación del público. Gimnasio de 20 mts de largo x 10 mts. de ancho. Atletismo: Pista con medidas oficiales. Perímetro interno: 400 m.  Canchas de Paddle: Posee en el polideportivo dos canchas cubierta y una descubierta con sus medidas reglamentarias con iluminación.  Patinódromo: Mejor pista de asfalto de patín carrera en capital y gran buenos aires. 250 m de perímetro.  Canchas de césped sintético: Cinco canchas de fútbol sala.  Gimnasio polifuncional de Hockey sobre patines: Pista techada con capacidad para 200 personas (bajo autopista). Medidas: 25 x 30 m.  Gimnasio de musculación: gimnasio de complemento de pesas de 28 x 28 m (bajo autopista). Gimnasio de levantamiento olímpico: Gimnasio de 8 x 20 m para levantamiento olímpico de pesas y rehabilitación. Gimnasio de cestoball: Gimnasio cubierto de 30 x 30 m (bajo autopista). 1 cancha oficial y otra de entrenamiento. Béisbol: Cuenta con un sector techado y cercado, con su respectiva jaula de bateo y las medidas de seguridad adecuada para la práctica de dicha actividad, ubicado en el polideportivo. Juegos Rústicos: Posee amplios juegos de madera (puentes colgantes, tobogán, sogas para escalar, troncos de equilibrio, etc) sobre piso de arena en un sector techado y alambrado ubicado en el polideportivo. Patios Recreativos: En ellos están delimitadas canchas de Básquet, Voley y Fútbol, también se realizan entrenamientos de Handball y Hockey sobre Césped. Quincho del Polideportivo: Mítico Lugar de recreación y de reunión de los asociados, concesionado para el servicio gastronómico. También se cuenta con su alquiler para eventos dentro de la institución para las distintas disciplinas. Cancha de Bochas: Nuestra Institución cuenta con el recinto de Bochas más grande de Sudamérica, con 4 canchas sintéticas de 25x 4 Mts.   INSTITUTO DR. DALMACIO VÉLEZ SARSFIELD","JUSTO, JUAN B. AV.",8900,"JUSTO, JUAN B. AV. 8900",Versalles,Comuna 10,-58.513889,-34.633463
189,CLUB ATLETICO VELEZ SARSFIELD,CLUB,club,Club Atletico Velez Sarsfield,CENTRAL - SEDE Y  ESTADIO JOSE AMALFITANI,Av. Juan B. Justo 9200,4641-5663/5763/4014,velezsocios@velezsarsfield.com.ar,Club Atlético Vélez Sarsfield,www.velezsarsfield.com.ar,"Fútbol Profesional y Amateur, Voley, Básquet, Ajedrez, Yoga, Aerobismo, Atletismo, Béisbol, Bochas, Bocchia, Cestoball, Gimnasia Acrobática, Gimnasia Artística, Gimnasia Aeróbica, Gimnasia Integral, Gimnasia Masculina Mayores, Hockey sobre Césped, Hockey sobre Patines, Judo, Karate, Kung Fu, Levantamiento Olímpico, Musculación, Natación, Paddle, Patín Artístico, Patín Carrera, Pesca Deportiva, Ciclismo, Handball y Tenis. Actividades culturales","ESTADIO AMALFITANI con capacidad 49.540 espectadores.   Salón Bajo Oeste: Gimnasio de 35 x 15 m. Pileta de Natación: Invierno: pileta c/globo. Verano: pileta olímpica (50 x 25 m) y pileta de 25 x 16 m, terraza solarium,solarium parquizado y confitería dentro del complejo. Estadio de básquet “Víctor Barba”: de 28 x 15 m, con tres tableros electrónicos, bocina de estadio, juego de luces y tribunas cabecera este (populares y plateas), cabecera oeste (popular local) y lateral (platea local), con capacidad para 1000 espectadores sentados y 500 parados. Playón Polifuncional: cubierto de 100 x 25 m. Cuatro canchas de vóley. Salon “Osvaldo Di Fonzo”: Tres gimnasios, especialmente acondicionados para la práctica de patín artístico, judo y gimnasia artística y acrobática.  Canchas de baby fútbol: Cuatro canchas de cemento.  Gimnasio 6to. Piso: Salón de karate de 20 x 20 m. BIBLIOTECA. ","JUSTO, JUAN B. AV.",9200,"JUSTO, JUAN B. AV. 9200",Liniers,Comuna 9,-58.519508,-34.633653
136,CLUB BRISTOL,CLUB DE BARRIO,club_de_barrio,Club Bristol,UNICA,La Rioja 1869,4308-5504,,,,"baby, patin, taekwondo, tango",2 canchas - 1 salon,LA RIOJA,1869,LA RIOJA 1869,Parque Patricios,Comuna 4,-58.406089,-34.633005
288,CLUB CENTRO NAVAL,CLUB,club,Club Centro Naval,SEDE NUÑEZ,Av. Cantilo y Arroyo Medrano,4701-4795 y 4704-9272,sede.nunez@centronaval.org.ar,,www.centronaval.org.ar,"rugby, hockey, nautica","amarraderos -  2 canchas  de hockey de césped sintético y 2 canchas de mini-hockey - 5 canchas reglamentarias de rugby, 4 de ellas provistas de torres de iluminación para entrenamiento nocturno y 3 canchas de mini-rugby.",rivadavia comodoro,,"RIVADAVIA MARTIN, COMODORO y DEL LIBERTADOR AV.",Nuñez,Comuna 13,-58.463366,-34.541372
169,CLUB CIUDAD DE BUENOS AIRES,CLUB,club,Club Ciudad De Buenos Aires,UNICA,Av. Libertador 7501,4703-0222,comunicacion@clubciudad.org.ar,Club Ciudad de Buenos Aires - Oficial,www.clubciudad.org.ar,"Tenis, golf, padel, natacion, fútbol, hockey, hockey sobre patines, rugby, softbol, voleybol, bochas, pelota-paleta, judo, karate, esgrima, musculacion, tango, folklore, salsa, merengue. Colonia de vacaciones.",canchas de tenis - canchas de paddle - 4 piletas (1 cubierto) - canchas de hockey y hockey sobre patines - canchas de fútbol - canchas de voley - gimnasios - cancha de rugby - cancha de softbol - cancha de bochas - cancha de pelota-paleta,DEL LIBERTADOR AV.,7501,DEL LIBERTADOR AV. 7501,Nuñez,Comuna 13,-58.460452,-34.543926
280,CLUB COMUNICACIONES,CLUB,club,Club Comunicaciones,,Avda. San Martin 5123,4502-9493,administracion@clubcomunicaciones.com.ar,,,"baby fútbol, basquet, patin, voley, futsal, handbol, gimnasia artistica, taekwondo, lucha, hockey sobre cesped y patines, beisball, pelota paleta, musculacion, fútbol afa, voley, lucha",4 canchas de fútbol - 16 canchas de tenis - 2 canchas de rugby - cancha de basquet - natatorio - salones,SAN MARTIN AV.,5123,SAN MARTIN AV. 5123,Agronomia,Comuna 15,-58.489813,-34.597173
299,CLUB DE AJEDREZ DE VILLA DEL PARQUE,CLUB DE BARRIO,club_de_barrio,Club De Ajedrez De Villa Del Parque,UNICA,Santo Tomé 3823,,cavpajedrez@gmail.com,Club de Ajedrez de Villa del Parque,www.cavp.com.ar,"Ajedrez
",,SANTO TOME,3823,SANTO TOME 3823,Villa Del Parque,Comuna 11,-58.497673,-34.610877
16,CLUB DE AJEDREZ JAQUE MATE ASOCIACION CIVIL,CLUB DE BARRIO,club_de_barrio,Club De Ajedrez Jaque Mate Asociacion Civil,,Sgo. Del Estero 952,4305-5206,,,,ajedrez,biblioteca - 4 salones,SANTIAGO DEL ESTERO,952,SANTIAGO DEL ESTERO 952,Constitucion,Comuna 1,-58.384270,-34.619231
91,CLUB DE AMIGOS,CLUB,club,Club De Amigos,UNICA,Figueroa Alcorta 3885,4802-3058 / 4807-4035  / 4801-1213,info@clubdeamigos.org.ar,Club de Amigos,www.clubdeamigos.org.ar,"basquet, fútbol, gimnasia, hockey, artes marciales, natacion, rugby, tenis, voley, fitness.",canchas - gimnasio - natatorios,"FIGUEROA ALCORTA, PRES. AV.",3885,"FIGUEROA ALCORTA, PRES. AV. 3885",Palermo,Comuna 14,-58.411021,-34.572148
264,CLUB DE CORREDORES,CLUB DE BARRIO,club_de_barrio,Club De Corredores,,Monroe 916,4780-1010,clubdecorredores@clubdecorredores.com.ar,,www.clubdecorredores.com,carreras de calle de atletismo y carreras de aventura en zonas campestres,,MONROE,916,MONROE 916,Belgrano,Comuna 13,-58.444462,-34.549182
135,CLUB DE GIMNASIA Y ESGRIMA DE VELEZ SARSFIELD,CLUB,club,Club De Gimnasia Y Esgrima De Velez Sarsfield,UNICA,Joaquin V. Gonzalez 1511,4567-6971,,,,"baby, patin, gimnasia, folklore,Taekwondo,futsal,gimnasio",1 cancha - 2 salones,"GONZALEZ, JOAQUIN V.",1511,"GONZALEZ, JOAQUIN V. 1511",Villa Santa Rita,Comuna 11,-58.489534,-34.619137
93,CLUB DE GIMNASIA Y ESGRIMA DE VILLA DEL PARQUE,CLUB DE BARRIO,club_de_barrio,Club De Gimnasia Y Esgrima De Villa Del Parque,UNICA,Tinogasta 3455,4501-1518 int. 11 y 12  FAX: 4501-2438,gevpadministracion@fibertel.com.ar,Club Gevp,www.gevparque.org,"Básquet, Cestoball, Danza contemporánea, Danza jazz, Zumba, Gimnasia rítmica, Gimnasia artística, Gimnasia aeróbica, Gimnasia suave, Yoga, Gimnasio de musculación, Indoor cycling, Pilates, Tango, Fútbol, Vóley masculino y femenino, Iniciación deportiva, Taekwondo, Buceo, Natación y Tenis. Actividades culturales",Canchas - Salones - Gimnasios - Natatorios climatizados,TINOGASTA,3455,TINOGASTA 3455,Villa Del Parque,Comuna 11,-58.499126,-34.602540
89,CLUB DEL PERSONAL DE DIRECCION DEL FERROCARRIL DOMINGO FAUSTINO SARMIENTO - FCDFS,CLUB DE BARRIO,club_de_barrio,Club Del Personal De Direccion Del Ferrocarril Domingo Faustino Sarmiento - Fcdfs,UNICA,Reservistas Argentinos 219,4644-2360   4642-9845,clubferrocarrildfs@hotmail.com,,,"Folklore, tango, gimnasia femenina, fútbol 7 y 9, natación, tenis, pelota paleta, pádel, vóley. Actividades culturales.",cancha - salon - natatorio,RESERVISTAS ARGENTINOS,219,RESERVISTAS ARGENTINOS 219,Liniers,Comuna 9,-58.521403,-34.636559
10,CLUB DE PELOTA Y ESGRIMA,CLUB DE BARRIO,club_de_barrio,Club De Pelota Y Esgrima,,Moreno  981,4342-4820,,,,pelota-paleta,cancha de paleta - salon,MORENO,981,MORENO 981,Monserrat,Comuna 1,-58.380152,-34.611775
232,CLUB DEPORTIVO ALBERDI,CLUB DE BARRIO,club_de_barrio,Club Deportivo Alberdi,,White 1041,4682-9737,,,,,,WHITE,1041,WHITE 1041,Parque Avellaneda,Comuna 9,-58.487716,-34.647119
223,Club Deportivo Español,CLUB,club,Club Deportivo Español,SEDE ADMINISTRATIVA,Crisostomo Alvarez 3932,4637-6903,clubespañol@speedy.com.ar,,,"baby, futsal, patin, voley, artes marciales, danza, otros. Actividades culturales.",,"ALVAREZ, CRISOSTOMO",3932,"ALVAREZ, CRISOSTOMO 3932",Parque Avellaneda,Comuna 9,-58.468201,-34.655290
7,Club Deportivo Español,CLUB,club,Club Deportivo Español,ANEXOS,Dellepiane y Escalada,S/T,clubespañol@speedy.com.ar,,,"baby, futsal, patin, voley, artes marciales, danza, otros. Actividades culturales.",,"DELLEPIANE, LUIS, TTE. GRAL.",,"DELLEPIANE, LUIS, TTE. GRAL. y ESCALADA AV.",Villa Lugano,Comuna 8,-58.472026,-34.663153
213,CLUB FERROCARRIL OESTE,CLUB,club,Club Ferrocarril Oeste,,F. Garcia Lorca 350,4431-8282,informesocios@ferrocarriloeste.org.ar  -  ferrocar@fibertel.com.ar,Club Ferro Carril Oeste - Oficial,www.ferrocarriloeste.org.ar,"fútbol, voley, basquet, gimnasia, natacion, tenis, tenis de mesa, handbol, taekwondo, judo, folklore, hockey, ajedrez, beisbol, judo, gimnasia deportiva",7 gimnasios - cancha de beisbol - 2 natatorios - 10 canchas de tenis - salon de taekwondo - salon de ajedrez,"GARCIA LORCA, FEDERICO",350,"GARCIA LORCA, FEDERICO 350",Caballito,Comuna 6,-58.445535,-34.617957
131,CLUB FULGOR DE VILLA CRESPO,CLUB DE BARRIO,club_de_barrio,Club Fulgor De Villa Crespo,UNICA,Loyola 828,4778-1511 a partir de las 16 hs,,,,"baby, patin, artes marciales, tango, folklore, yoga, ajedrez",1 cancha - 1 salon,LOYOLA,828,LOYOLA 828,Villa Crespo,Comuna 15,-58.438128,-34.593253
25,CLUB GIMNASIA Y ESGRIMA DE BUENOS AIRES,CLUB,club,Club Gimnasia Y Esgrima De Buenos Aires,SEDE ING. J. NEWBERY,Marcelino Freyre 3831 - Av. Dorrego 3600,4777-8400,info@geba.org.ar,GEBA - Club de Gimnasia y Esgrima de Buenos Aires (Oficial),www.portaldegeba.com,Aeróbica y Localizada – Ajedrez – Atletismo - Flexibilidad y Localizada - Gimnasio Musculación - Indoor Cycle - Iniciación Deportiva (Multideportivas) - Localizada y Intensa - Mini GEBA  -   (Multideportivas) – Natación - Waterpolo - P.A.F.B. - Pelota a Paleta – Tenis - Yoga Moderno -  Colonia de vacaciones,"6 Canchas de tenis de polvo de ladrillo - 1 Frontón - 1 Cancha de basquet  de cemento apta además para fútbol 5 - 1 Cancha de basquet de polvo de ladrillo - 1 Playón multiuso / Cancha sintético de mini fútbol - 1 Estadio con capaciad  para 12.000 espectadores - 1 Cancha de Mini Fútbol - 4 Canchas de Mini Voley - 1 Pista de Atletismo de 6 andariveles, 400 metros de desarrollo, con Sector para saltos y lanzamientos - 1 Pista de patinaje cubierta con piso de baldosas -1 Pileta olímpica cubierta 50 mts y 6 andariveles - 1 Pileta chica de 45 mts cuadrados al aire libre - 1 Gimnasio de aeróbica con pisos de parquet (Gimnasio Pimentel) - 1 Gimnasio de aeróbica (Gimnasio Llorente) - 1 Gimnasio de complementos y preparación física - 1 Sala de spinning (clases indoor cycle) - 1 Sala de relax y lectura - 1 Juegos infantiles hasta 5 años - 1 Quincho climatizado con 18 mesas y 13 parrillas - 1 Sector al aire libre con 28 mesas y 18 parrillas de material - 1 Oficina Médica - 1 Restaurante - 5 Vestuarios de Damas para todas las edades - 5 Vestuarios de Hombres para todas las edades - 1 Nursery  abierto de jueves a domingos (Sin personal) - 1 Sala de juegos - 1 Vestuario visitante - 1 Dormis para delegaciones con 16 camas - 1 Guardería para bicilcletas y reposeras - 1 Solarium hombres - 1 Solarium damas - 1 Peluquería para caballeros - 2 canchas de pelota paleta - 1 sala de juegos y sala de dibujo - Espacio verde de 400 mts cuadrados como solarium","FREYRE, MARCELINO E., CNEL. AV.",3831,"FREYRE, MARCELINO E., CNEL. AV. 3831",Palermo,Comuna 14,-58.420430,-34.569591
24,CLUB GIMNASIA Y ESGRIMA DE BUENOS AIRES,CLUB,club,Club Gimnasia Y Esgrima De Buenos Aires,SEDE SAN MARTIN,Av. Figueroa Alcorta 5575,Conmutador: 4788-8400/3303/5073,info@geba.org.ar,GEBA - Club de Gimnasia y Esgrima de Buenos Aires (Oficial),www.portaldegeba.com,Aeróbica y Localizada - Aeróbico y Latino - Ajedrez - Basquetbol - Deport Training - Flexibilidad - Fútbol Campeonato Interno - G.A.P. - Gimnasia Artística Femenina y Acrobática - Gimnasio de Musculación - Golf - Hockey Sobre Cesped Femenino - Hockey Sobre Cesped Masculino - Hockey Sobre Patines Femenino - Hockey Sobre Patines Masculino - Indoor Cycle - Iniciación Deportiva (Multideportivas) - Localizada - Localizada y Intensa - Mini GEBA (Multideportivas) - Natacion - P.A.F.B. - Palestra - Patín - Pilates - Waterpolo - Rugby - TaeKwonDo - Tenis - Voleibol - Yoga Moderno. Colonia de vacaciones.,"24 canchas de tenis de polvo de ladrillo - 2 Canchas de tenis de cemento - 7 Canchas de Voleibol (tipo playón) - 6 Canchas de minivoley - 3 Canchas de Fútbol 11 - 3 Canchas de Fútbol sintético - 3 Piletas con más de 700 m2 y de distintas profundidades aptas para niños y adultos: Pileta de 25 metros climatizada de 300 m2 con sanitarios y vestuarios  propios - 1 Cancha de basquet con piso de cemento - 2 Canchas de Hockey sobre Cesped sintético Agua/Arena (Reglamentarias) - 1 Cancha de Hockey sobre ruedas techada - 1 Playón techado para Patinaje Artistico - 1 Salón de Usos Multiples (SUM) - 1 Sala de Juegos - 1 Sala de Yoga - 2 Parques de juegos para niños  (Areneros) - 1 Parque de juegos para niños (Cesped Sintético) - 1 Oficina Médica - 2 Canchas Sintéticas de Futbol 5/8 -  1 Cancha de Fútbol 5 con piso cerámico - 1 Moderno Spa con baños de Calor y Ducha Escocesa y Finlandesa - 2 Canchas de Rugby (aptas para competencias oficiales, una de ellas con capacidad para 2.000 espectadores) - 1 Playón Multiuso (Papi Fútbol y Patín) -  1 Cancha de Golf (9 Hoyos) - 1 Gimnasio de Fitness - 1 Gimnasio de Musculación - 1 Gimnasio de Musculación de Alto Rendimiento - 1 Cancha de Voley/Basquetbol con piso deportivo sintético techada - 1 Nursery - 3 Restorantes - 10 Vestuarios (Caballeros, Damas, Cadetes, Infantiles, Visitantes y Pileta) - 4 Terceros Tiempos (Rugby, Hockey, Tenis y Golf) - 1 Quincho Cubierto con 30 Mesas y 40 Parrillas - 1 Dormi  Caballeros con 30 camas - 1 Dormi Damas con 30 camas - 1 Solarium de Hombre - 1 Solarium de Mujeres - 1 Playón Multiuso con cesped sintético ","FIGUEROA ALCORTA, PRES. AV.",5575,"FIGUEROA ALCORTA, PRES. AV. 5575",Palermo,Comuna 14,-58.425522,-34.560638
23,CLUB GIMNASIA Y ESGRIMA DE BUENOS AIRES,CLUB,club,Club Gimnasia Y Esgrima De Buenos Aires,CENTRAL - DR. R. C. ALDAO,Bartolome Mitre 1149 - Tte. Gral. J. D. Peron 1154,4382-4395/ 0031,info@geba.org.ar,GEBA - Club de Gimnasia y Esgrima de Buenos Aires (Oficial),www.portaldegeba.com,Acondicionamiento Físico - Aeróbica - Aeróbica y Localizada - Aikido - Ajedrez - Basquetbol - Body Combat - Body Pump - Boxeo - Bridge - Danesa - Danza Jazz - Esgrima - Esgrima de Bastón - Flexibilidad - Fútbol Societario - Gimnasia Artística Femenina - Gimnasia Artística Masculina - Gimnasia Corporal Postural - Gimnasia Rítmica Deportiva - Gimnasio de Musculación - Hatha Yoga - Indoor Cycle - Jazz - Judo - Karate - Localizada - Localizada y Flexibilidad - Localizada e Intensa - Natación - Pelota a Paleta - Pilates - Pilates Matt - Ritmos - Stretching - Taekwondo - Voleibol - Yoga - Yoga Iyengar - Colonia de vacaciones,"1 Gran Gimnasio de 50 x 24 m. con una cancha de Voley y una de Basquet aptas para alta competencia, con galería superior perimetral adecuada para running - 2 Gimnasios aptos para entrenamientos y práctica de Voley y Basquet Infantil, y uno de ellos para fútbol 5 - 4 Gimnasios aptos para Actividades Gimnásticas y Recreativas - 2 Trinquetes cerrados de Pelota a Paleta - 1 Trinquete abierto de Pelota a Paleta - 1 Sala de Tenis de Mesa - 1 Gimnasio de Complementos con ring de Box y 72 máquinas para ejercitaciones de distintos grupos musculares - 1 Gimnasio de Alto Rendimiento con equipamiento completo para gimnasia deportiva y artística - 1 Natatorio de 25 metros cubiertos con galería apto para Alta Competencia - 1 Natatorio para Infantiles con galería superior y profundidades para distintas edades - 1 Moderno Gimnasio de musculación con cintas, bicicletas horizontales, elípticos, escaladores y peso libre con barras olímpicas - 1 sala de spinning con 30 bicicletas fijas - 1 Sala de Armas con 13 pedanas y señaladores electrónicos - 1 Sala de Ajedrez para 40 partidas simultáneas - 1 Sala de Bridge - 1 Tatami para Yoga y Judo - 1 Sala de Teatro con capacidad para 140 espectadores - 2 Salones Musicales para la enseñanza de guitarra e instrumentos de viento - 1 Sala de Cerámica, Esmaltado de Metales, Pintura sobre porcelana equipada con horno - 1 Sala de Dibujo equipada - 2 Sala de Danzas para clases de Folklore, Tango, y Danzas Clasicas - 1 Sala de Vitalicias - 1 Sala de Vitalicios con bar, mesas de naipes y billar - 1 Biblioteca Circulante - 1 Solarium para Damas y otro de Caballeros - 1 Baño de Calor (turco, sauna, finlandes y sala de descanso) - 1 Confitería - 6 Vestuarios (Caballeros, Damas e Infantiles)","MITRE, BARTOLOME",1149,"MITRE, BARTOLOME 1149",San Nicolas,Comuna 1,-58.382965,-34.607373
248,CLUB GIMNASIA Y ESGRIMA VILLA DEVOTO,CLUB DE BARRIO,club_de_barrio,Club Gimnasia Y Esgrima Villa Devoto,,Mercedes 4280,4501-0218,,,,"baby, basket, patin, voley, gimnasia deportiva, artes marciales, teatro, coro, esgrima",gimasio - cancha de paddle - 2 salones,MERCEDES,4280,MERCEDES 4280,Villa Devoto,Comuna 11,-58.514319,-34.598638
272,CLUB HIPICO ARGENTINO,CLUB,club,Club Hipico Argentino,UNICA,Figueroa Alcorta 7285,4787-1003,,,www.clubhipicoargentino.org.ar,hipismo - escuela de equitación - gimnasia - natacion,"1 pista de césped, caballerizas para 300 equinos, varias pistas de arena, y un picadero cubierto con capacidad para 5000 espectadores. Otras comodidades son: una importante sede social, una pileta olímpica, un gimnasio y solarium.","FIGUEROA ALCORTA, PRES. AV.",7285,"FIGUEROA ALCORTA, PRES. AV. 7285",Belgrano,Comuna 13,-58.445194,-34.547244
265,CLUB JUVENTUD DE BELGRANO,CLUB DE BARRIO,club_de_barrio,Club Juventud De Belgrano,,Virrey Aviles 3167,4553-6266,,,,"Baby Futbol, voley, patin, Artes Marciales. Actividades culturales.",1 cancha - 2 salones,"AVILES, VIRREY",3167,"AVILES, VIRREY 3167",Colegiales,Comuna 13,-58.458544,-34.573208
144,CLUB JUVENTUD DE NUÑEZ,CLUB DE BARRIO,club_de_barrio,Club Juventud De Nuñez,UNICA,11 de Septiembre 3635,4703-1879,,,,"boxeo, taekwondo, pilates",2 salones,11 DE SEPTIEMBRE DE 1888,3635,11 DE SEPTIEMBRE DE 1888 3635,Nuñez,Comuna 13,-58.461615,-34.545241
239,"CLUB LINIERS NORTE SOCIAL, CULTURAL Y DEPORTIVO",CLUB DE BARRIO,club_de_barrio,"Club Liniers Norte Social, Cultural Y Deportivo",,Gana 687,4641-6138,,,,"Gimnasia, Artes Marciales, pesca. Actividades culturales.",2 Salones,GANA,687,GANA 687,Versalles,Comuna 10,-58.527475,-34.630951
134,CLUB MIRIÑAQUE,CLUB DE BARRIO,club_de_barrio,Club Miriñaque,UNICA,Lynch 3471,4911-1029,,,,"taekwondo, gimnasia deportiva, baby, futsal, basket, patin, voley, yoga",1 cancha - 2 salones,LYNCH,3471,LYNCH 3471,Nueva Pompeya,Comuna 4,-58.408678,-34.651617
75,CLUB MITRE,CLUB DE BARRIO,club_de_barrio,Club Mitre,UNICA,Segurola 1332,4567-8185,clubmitre@hotmail.com,CLUB SOCIAL Y DEPORTIVO MITRE,,"baby fútbol, patin artistico, taekwondo,
tango, folklore",cancha - salon,SEGUROLA AV.,1332,SEGUROLA AV. 1332,Velez Sarsfield,Comuna 10,-58.495403,-34.623651
211,CLUB NAUTICO HACOAJ,CLUB,club,Club Nautico Hacoaj,"SEDE CAPITAL, TIENE OTRAS TRES SEDES EN PROVINCIA",Av. Estado de Israel 4156,4863-2121,hacoaj@hacoaj.org.ar,Club Náutico Hacoaj - Sitio Oficial Organización sin fines de lucro,www.hacoaj.org.ar,"Fútbol 5, voley, gimnasia, gimnasia deportiva, handbol, patin, otros.",2 gimnasios cubiertos dobles - 1 gimnasio de entrenamiento - 1 gimnasio de capacitación - 2 salones de usos múltiples - Confitería - Tatami de judo - Aulas - Salones de reunión - Oficinas administrativas y de gestión,ESTADO DE ISRAEL AV.,4156,ESTADO DE ISRAEL AV. 4156,Almagro,Comuna 5,-58.424233,-34.597925
94,CLUB OESTE,CLUB DE BARRIO,club_de_barrio,Club Oeste,UNICA,Jose M. Moreno 446,4923-7509,cluboeste2003@yahoo.com.ar,Club-Oeste Caballito,www.webcluboeste.com.ar,"Árabe, básquet, axe, danza, gim articular, escuela de fútbol, fútbol infantil, gim. artística, ninjutsu, patín escuela, taekwondo, karate, tango, voley adultos, tai-chi-chuan, yoga tt, salsa. Actividades culturales.",canchas - salones,"MORENO, JOSE MARIA AV.",446,"MORENO, JOSE MARIA AV. 446",Caballito,Comuna 6,-58.434497,-34.623615
68,CLUB PUEYRREDON,CLUB DE BARRIO,club_de_barrio,Club Pueyrredon,UNICA,Larsen 2843,4571-0156,,,,"Artes marciales, fútbol 5, billar, patin.",canchas - salones,LARSEN,2843,LARSEN 2843,Villa Pueyrredon,Comuna 12,-58.508049,-34.578708
252,CLUB RACING DE VILLA DEL PARQUE,CLUB,club,Club Racing De Villa Del Parque,SEDE CAPITAL - DOMICILIO LEGAL EN AVELLANEDA,Nogoya 3045,4501-9100  4504-9111  y 4502-7396,sedecapital@racingclub.com.ar,,www.racingclub.com.ar,"atletismo, básquet, fútbol infantil, futsal femenino, futsal masculino, gimnasia artística, judo, patín artístico, sipalki do, taekwondo, voley femenino",,NOGOYA,3045,NOGOYA 3045,Villa Del Parque,Comuna 11,-58.491358,-34.602565
208,CLUB RIACHUELO JUNIORS,CLUB DE BARRIO,club_de_barrio,Club Riachuelo Juniors,,Alberto Einstein 1022,4943-6158,,,,"fútbol infantil, escuela de fútbol y voley, karate, aerobox y patín",1 buffet - salón para eventos - 1 cancha de baby,"EINSTEIN, ALBERTO",1022,"EINSTEIN, ALBERTO 1022",Nueva Pompeya,Comuna 4,-58.410062,-34.656398
249,"CLUB SOCIAL CULTURAL, DEPORTIVO Y BIBLIOTECA PEDRO LOZANO",CLUB DE BARRIO,club_de_barrio,"Club Social Cultural, Deportivo Y Biblioteca Pedro Lozano",,Gualeguaychu 2902,4566-3598,clubpedrolozano@gmail.com,,,"Baby fútbol, Artes Marciales, Danzas Arabes, capoeira, boxeo, kung fu",1 Canchas - 2 salones,GUALEGUAYCHU,2902,GUALEGUAYCHU 2902,Villa Devoto,Comuna 11,-58.507396,-34.608506
164,"CLUB SOCIAL, CULTURAL Y DEPORTIVO BOHEMIOS",CLUB DE BARRIO,club_de_barrio,"Club Social, Cultural Y Deportivo Bohemios",UNICA,Necochea 948,4307-0114,,,,"Baby fútbol, yoga, tango, salsa y merengue. Actividades culturales.",1 cancha - 2 salones,NECOCHEA,948,NECOCHEA 948,Boca,Comuna 4,-58.358654,-34.632772
90,"CLUB SOCIAL, CULTURAL Y DEPORTIVO LARRAZABAL",CLUB DE BARRIO,club_de_barrio,"Club Social, Cultural Y Deportivo Larrazabal",UNICA,Larrazabal 829,4642-7089,larrazabalclubsocial@gmail.com,,,"Artes marciales, yoga. Actividades culturales.",salones,LARRAZABAL AV.,829,LARRAZABAL AV. 829,Liniers,Comuna 9,-58.507410,-34.647225
281,CLUB SOCIAL DEPORTIVO EL TREBOL Y BIBLIOTECA INDEPENDENCIA,CLUB DE BARRIO,club_de_barrio,Club Social Deportivo El Trebol Y Biblioteca Independencia,,Gandara 2840,4521-5569,eltrebol54@uol.com.ar,,,"Fútbol de menores, voley femenino, karate, gimnasia, bochas para jubilados, teatro. Actividades culturales.",,GANDARA,2840,GANDARA 2840,Parque Chas,Comuna 15,-58.481020,-34.583324
31,CLUB SOCIAL SPORTIVO DEVOTO,CLUB DE BARRIO,club_de_barrio,Club Social Sportivo Devoto,,Gabriela Mistral 3151,4571-3552,,,,"boxeo, artes marciales, fútbol,
tejo",salones - canchas de tejo,"MISTRAL, GABRIELA",3151,"MISTRAL, GABRIELA 3151",Villa Pueyrredon,Comuna 12,-58.504803,-34.589133
240,CLUB SOCIAL Y CULTURAL EL LUCHADOR,CLUB DE BARRIO,club_de_barrio,Club Social Y Cultural El Luchador,,Viena 6508,4644-3353,,,,"taekwondo, tango, salsa y merengue, folklore, danza arabe.",1 cancha - 1 salon,VIENA,6508,VIENA 6508,Versalles,Comuna 10,-58.523622,-34.632888
227,CLUB SOCIAL Y CULTURAL GENERAL SAN MARTIN,CLUB DE BARRIO,club_de_barrio,Club Social Y Cultural General San Martin,,Oliden  956,4644-4367,,,,"Baby fútbol, artes marciales, gimnasia artistica, gimnasia femenina. Actividades Culturales.",1 cancha - 2 salones,OLIDEN,956,OLIDEN 956,Liniers,Comuna 9,-58.509913,-34.648142
282,CLUB SOCIAL Y DEPORTIVO AÑASCO,CLUB DE BARRIO,club_de_barrio,Club Social Y Deportivo Añasco,,Gral. M.A.Rodriguez 2650,4583-4886,clubanasco@fibertel.com.ar,,,"baby fútbol, patin, taekwondo, danzas clasicas. Actividades culturales.",1 cancha - 2 salones,"RODRIGUEZ, MANUEL A., GENERAL",2650,"RODRIGUEZ, MANUEL A., GENERAL 2650",Paternal,Comuna 15,-58.462023,-34.597549
283,CLUB SOCIAL Y DEPORTIVO DEFENSORES DE CHACARITA,CLUB DE BARRIO,club_de_barrio,Club Social Y Deportivo Defensores De Chacarita,,Elcano  3831,4554-2990,defensoresdechacarita@live.com.ar,,,"Baby, voley, artes marciales, danza. Actividades culturales.",2 canchas - 1 salon,ELCANO AV.,3831,ELCANO AV. 3831,Villa Ortuzar,Comuna 15,-58.460612,-34.581106
274,CLUB SOCIAL Y DEPORTIVO ESTRELLA DE MALDONADO,CLUB DE BARRIO,club_de_barrio,Club Social Y Deportivo Estrella De Maldonado,,Juan B. Justo 1439,4771-9334,info@estrella-maldonado.com.ar,,www.estrella-maldonado.com.ar,"baby, futsal, patin, voley, taekwondo, karate, tenis de mesa, acrobacia, esgrima",3 canchas - 2 salones - 2 natatorio (cubiertos en invierno),"JUSTO, JUAN B. AV.",1439,"JUSTO, JUAN B. AV. 1439",Palermo,Comuna 14,-58.434324,-34.584909
284,CLUB SOCIAL Y DEPORTIVO FLOREAL DE LA PATERNAL,CLUB DE BARRIO,club_de_barrio,Club Social Y Deportivo Floreal De La Paternal,,Elcano  4843,4553-0648,,,,"ajedrez, voley, patin, baby",2 salones,ELCANO,4843,ELCANO 4843,Paternal,Comuna 15,-58.467437,-34.591958
228,CLUB SOCIAL Y DEPORTIVO FLORESTA JUNIORS,CLUB DE BARRIO,club_de_barrio,Club Social Y Deportivo Floresta Juniors,,Laguna 734,4671-9701,florestajuniors@gmail.com,,,"artes marciales, yoga, ajedrez, baby, patin, danza",2 salones - biblioteca,LAGUNA,734,LAGUNA 734,Parque Avellaneda,Comuna 9,-58.477605,-34.641310
218,CLUB SOCIAL Y DEPORTIVO GENERAL PUEYRREDON,CLUB DE BARRIO,club_de_barrio,Club Social Y Deportivo General Pueyrredon,,Zuviria 2921,S/T,,,,"baby, pesas, yoga, basquet",1 cancha - 1 salon,ZUVIRIA,2921,ZUVIRIA 2921,Flores,Comuna 7,-58.458897,-34.645029
238,CLUB SOCIAL Y DEPORTIVO JUVENTUD DE DEVOTO,CLUB DE BARRIO,club_de_barrio,Club Social Y Deportivo Juventud De Devoto,,Bermudez 2366,4566-5212,clubjuventud@ubbi.com,,,"baby, patin, gimnasia deportiva, artes marciales, salsa, ajedrez","biblioteca, 2 canchas, 2 salones",BERMUDEZ,2366,BERMUDEZ 2366,Monte Castro,Comuna 10,-58.512540,-34.617171
243,CLUB SOCIAL Y DEPORTIVO LEOPARDI,CLUB DE BARRIO,club_de_barrio,Club Social Y Deportivo Leopardi,,Cajaravilla 4980,4635-2629,,,,"baby fútbol, boxeo,",1 cancha - 2 salones,CAJARAVILLA,4980,CAJARAVILLA 4980,Villa Luro,Comuna 10,-58.496545,-34.640903
15,CLUB SOCIAL Y DEPORTIVO LIBERAL DE NUEVA CHICAGO,CLUB DE BARRIO,club_de_barrio,Club Social Y Deportivo Liberal De Nueva Chicago,,Carhue 2855/77,4686-6151,,,,"Baby, patin, artes marciales, gimnasia, gimnasia deportiva, pelota paleta, yoga. Actividades culturales.",2 canchas (1 de pelota-paleta) - 1 salon,CARHUE,2855,CARHUE 2855,Mataderos,Comuna 9,-58.501713,-34.667908
219,CLUB SOCIAL Y DEPORTIVO NUEVA ESTRELLA,CLUB DE BARRIO,club_de_barrio,Club Social Y Deportivo Nueva Estrella,,Santander 4601,4602-6731,clubnuevaestrella@yahoo.com.ar  -  nuevaestrella@yahoo.com.ar,,,"baby, futsal",2 canchas - 1 salon,SANTANDER,4601,SANTANDER 4601,Villa Lugano,Comuna 8,-58.474411,-34.663140
258,CLUB SOCIAL Y DEPORTIVO PINOCHO,CLUB DE BARRIO,club_de_barrio,Club Social Y Deportivo Pinocho,,Manuela Pedraza 5139,4541-5909,pinocho@overnet.com.ar, clubpinocho@hotmail.com,,,"basquet, baby, futsal, gimnasia, karate, patin, voley, natacion, pilates",gimansio - canchas fútbol 5 - natatorio,"PEDRAZA, MANUELA",False,"PEDRAZA, MANUELA 5139",Villa Urquiza, , 
230,CLUB SOCIAL Y DEPORTIVO SOL DEL PLATA ANEXO BIBLIOTECA BARTOLOME MITRE,CLUB DE BARRIO,club_de_barrio,Club Social Y Deportivo Sol Del Plata Anexo Biblioteca Bartolome Mitre,,Araujo 1879,,,,,baby,1 cancha - 1salon,ARAUJO,1879,ARAUJO 1879,Mataderos,Comuna 9,-58.487807,-34.654641
229,CLUB SOCIAL Y DEPORTIVO SOL DE MAYO,CLUB DE BARRIO,club_de_barrio,Club Social Y Deportivo Sol De Mayo,,Oliden 1947,4687-1584,,,,"baby fútbol, artes marciales",1 cancha - 3 salones,OLIDEN,1947,OLIDEN 1947,Mataderos,Comuna 9,-58.499376,-34.656959
214,CLUB SOCIAL Y DEPORTIVO UNION MARCHIGIANA,CLUB DE BARRIO,club_de_barrio,Club Social Y Deportivo Union Marchigiana,,Nicasio Oroño 457,4431-4800,,,,"tenis de mesa, taekwondo, karate, aikido, baby, patin artistico, gimnasia deportiva",1cancha - 1 salon,"OROÑO, NICASIO",457,"OROÑO, NICASIO 457",Caballito,Comuna 6,-58.451800,-34.618693
203,CLUB SPORTIVO BARRACAS BOLIVAR,CLUB DE BARRIO,club_de_barrio,Club Sportivo Barracas Bolivar,,Iriarte 2056,4302-8536 / 8576,prensa@sportivobarracas.com.ar,FACEBOOK.COM/SBARRACAS,www.sportivobarracas.com.ar,"futsal, patin, gimnasia deportiva, taekwondo, danzas arabes, natacion",2 canchas - 3 salones - natatorio,"IRIARTE, GRAL.",2056,"IRIARTE, GRAL. 2056",Barracas,Comuna 4,-58.376156,-34.648828
204,CLUB SPORTIVO PEREYRA,CLUB DE BARRIO,club_de_barrio,Club Sportivo Pereyra,,Alvarado 2785,4301-9133,,,,"baby, gimnasia deportiva",1 cancha - 2 salones,ALVARADO,2785,ALVARADO 2785,Barracas,Comuna 4,-58.385387,-34.648032
9,CLUB UNIDOS DE POMPEYA,CLUB DE BARRIO,club_de_barrio,Club Unidos De Pompeya,,Saenz 871,,,,,,salon - natatorio,SAENZ AV.,871,SAENZ AV. 871,Nueva Pompeya,Comuna 4,-58.416475,-34.650352
289,CLUB UNIVERSITARIO BUENOS AIRES,CLUB,club,Club Universitario Buenos Aires,SEDE NUÑEZ,Av. Cantilo 3215,4703-4610 ó 4703-4611,,,www.cuba.org.ar,"Tenis, Gimnasia, Náutica, Futbol, Futbol 11 Juvenil, Curso de Timonel.",Amarraderos.,Padre Canavery,1301,PADRE CANAVERY 1301,Nuñez,Comuna 13,-58.455312,-34.540821
271,CLUB UNIVERSITARIO BUENOS AIRES,CLUB,club,Club Universitario Buenos Aires,SEDE PALERMO,Av. Figueroa Alcorta y Belisario Roldán.,4774-5476 ó 4776-2992,,,www.cuba.org.ar,"Natación, Gimnasia, Pelota a Paleta, TaekwonDo,  Tenis, Squash, Paddle, Sala de Nautilus (Gimnasio de Pesas y aparatos), Esgrima (No se están dando clases),","natatorio, 3 canchas de tenis, cancha cerrada de pelota, 2 canchas abiertas de pelota, gimnasio, vestuarios para socios y damas, bar, restaurante y oficina médica.","FIGUEROA ALCORTA, PRES. AV.",,"FIGUEROA ALCORTA, PRES. AV. y ROLDAN, BELISARIO AV.",Palermo,Comuna 14,-58.417963,-34.566739
270,CLUB UNIVERSITARIO BUENOS AIRES,CLUB,club,Club Universitario Buenos Aires,SEDE CENTRAL,Viamonte 1560,"4375-4360, lineas rotativas",,,www.cuba.org.ar,"fútbol, squash, box, yudo, taekwondo, pelota paleta, natación, gimnasia, complemento de pesas , esgrima, básquet y yoga, conferencias, conciertos.",natatorio - Biblioteca - salon comedor,VIAMONTE,1560,VIAMONTE 1560,San Nicolas,Comuna 1,-58.388984,-34.600724
6,CLUB VECINAL Y DEPORTIVO DEFENSORES DE CERVANTES,CLUB DE BARRIO,club_de_barrio,Club Vecinal Y Deportivo Defensores De Cervantes,,Cervantes  1734,4648-4277,,,,"baby fútbol, futsal, patin, artes marciales,yoga. Actividades. Culturales.",1 cancha - 2 salones,CERVANTES,1734,CERVANTES 1734,Monte Castro,Comuna 10,-58.507363,-34.623288
259,CLUB VIENTO NORTE,CLUB DE BARRIO,club_de_barrio,Club Viento Norte,,Mariano Acha 3743,4541-5187,,,,"Artes marciales, danza. Actividades culturales.",,"ACHA, MARIANO, GRAL.",3743,"ACHA, MARIANO, GRAL. 3743",Saavedra,Comuna 12,-58.489105,-34.557995
297,CLUB VIRGEN DEL CARMEN,CLUB DE BARRIO,club_de_barrio,Club Virgen Del Carmen,CENTRAL,Av. Eva Perón 6378,4601-0423,,,,"Hockey, fútbol, fútbol femenino, Chaiu Do Kwan, Boxeo Maitai",,Av. Eva Perón ,6378,"PERON, EVA AV. 6378",Villa Lugano,Comuna 8,-58.492691,-34.667045
141,COLEGIALES,CLUB DE BARRIO,club_de_barrio,Colegiales,UNICA,Teodoro Garcia 2856/60,4551-5193,,CLUB DYSCOLEGIALES,www.clubdyscolegiales.com.ar  y  twitter: @ccolegiales,"Básquet, artes marciales (taekwondo, karate, aikido), capoeira, danza, ajedrez, natación, yoga. Actividades culturales.","gimnasio, canchas, salones,resto de basket","GARCIA, TEODORO",2856,"GARCIA, TEODORO 2856",Colegiales,Comuna 13,-58.448517,-34.573664
207,CRESPO JUNIORS,CLUB DE BARRIO,club_de_barrio,Crespo Juniors,,Tabare 1931,4919-5985,,,,baby fútbol,"2 canchas de 100x70, que las alquilan - 2 canchas de baby para campeonatos de baby y FEFI - 1 salon - 1 quincho y 1 buffet",TABARE,1931,TABARE 1931,Nueva Pompeya,Comuna 4,-58.428597,-34.655535
42,DAOM,CLUB,club,Daom,UNICA,Varela 1802,4633-2583,,CLUB DAOM,www.daom.com.ar,"Tenis, Vóley, Rugby, Hockey s/cesped, Patín artístico, Béisbol, Natación femenino y masculino. Colonia de vacaciones.",gimnasios - salones - natatorios - canchas - quinchos,VARELA AV.,1802,VARELA AV. 1802,Flores,Comuna 7,-58.449207,-34.647257
180,DARLING,CLUB DE BARRIO,club_de_barrio,Darling,UNICA,Brasil 50,4362-3818,info@darlingtennisclub.com.ar,Darling Tennis Club,www.darlingtennisclub.com.ar,tenis - natacion - gimnasio,13 canchas de tenis - Natatorio,BRASIL AV.,50,BRASIL AV. 50,Boca,Comuna 4,-58.364781,-34.625217
147,DEPORTIVO BUENOS AIRES,CLUB DE BARRIO,club_de_barrio,Deportivo Buenos Aires,UNICA,Pedernera 939,4619-1829  4637-1839,,,,"Baby, futsal, patín, taekwondo, gimnasia deportiva, tai chi chuan, patín artístico, fútbol competitivo infantil, danza. Actividades culturales.",2 canchas - 3 salones - biblioteca,PEDERNERA,939,PEDERNERA 939,Flores,Comuna 7,-58.457314,-34.639285
52,DEPORTIVO MORAN,CLUB DE BARRIO,club_de_barrio,Deportivo Moran,UNICA,Pedro Moran 2446/52,4571-4031,,CLUB MORAN,www.clubmoran.com.ar,"Baby fútbol, papi fútbol, patin, tango, ajedrez.",salon - cancha,"MORAN, PEDRO",2446,"MORAN, PEDRO 2446",Agronomia,Comuna 15,-58.491102,-34.589612
167,DEPORTIVO PARQUE,CLUB DE BARRIO,club_de_barrio,Deportivo Parque,UNICA,Marcos Sastre 3268,4501-8730,clubsocialparque@hotmail.com,,,"artes marciales, fútbol 5",Instalaciones en remodelación.,"SASTRE, MARCOS",3268,"SASTRE, MARCOS 3268",Villa Del Parque,Comuna 11,-58.492624,-34.606143
112,DEPROP,CLUB DE BARRIO,club_de_barrio,Deprop,UNICA,Rivadavia 3777,4981-9867 / 4982-3385,,ESCUELA DE PELOTA PALETA DEPROP,,"Pelota Paleta competitiva y recreativa (niños, jóvenes y mujeres), Taekwondo (ambos sexos, todas las edades), Gimnasio con aparatos y Gimnasia para damas.",cancha - gimnasio - salones,RIVADAVIA AV.,3777,RIVADAVIA AV. 3777,Almagro,Comuna 5,-58.419429,-34.611019
250,DEVOTO OESTE ASOCIACION DE FOMENTO Y BIBLIOTECA POPULAR,CLUB DE BARRIO,club_de_barrio,Devoto Oeste Asociacion De Fomento Y Biblioteca Popular,,Bermudez  3351,4568-4837,,,,"gimnasia, gimnasia artistica, artes marciales, yoga, folklore, tango",3 salones,BERMUDEZ,3351,BERMUDEZ 3351,Villa Devoto,Comuna 11,-58.521478,-34.610241
26,DEVOTO SOCIAL ALLENDE,CLUB DE BARRIO,club_de_barrio,Devoto Social Allende,UNICA,Melincue 4656,4566-8557,,,,"baby fútbol, pelota paleta, gimnasia, gimnasia deportiva, taekwondo, pilates, patín, yoga",canchas - salon - biblioteca - natatorio,MELINCUE,4656,MELINCUE 4656,Villa Devoto,Comuna 11,-58.510468,-34.612893
185,DOMINGO FAUSTINO SARMIENTO,CLUB DE BARRIO,club_de_barrio,Domingo Faustino Sarmiento,UNICA,Av. Intendente Francisco Rabanal 2375,4919-3104,,,,baby fútbol - futsal - patin - gimnasia ritmica - judo - taebo - danzas arabes - bochas (web) - billar - juegos de salon - auriculoterapia - fiestas danzantes,2 canchas - 1 salon - biblioteca,"RABANAL, FRANCISCO, INTENDENTE AV.",2375,"RABANAL, FRANCISCO, INTENDENTE AV. 2375",Villa Soldati,Comuna 8,-58.429917,-34.660033
53,EL ALBA,CLUB DE BARRIO,club_de_barrio,El Alba,UNICA,J. V. Gonzalez 2469/75,4568-8864,clubalba@yahoo.com.ar,,,"gimnasia, artes marciales (taekwondo y kung fu), danza, patin artistico, fútbol, escuela de voley, proximamente escuela de boxeo.",,"GONZALEZ, JOAQUIN V.",2469,"GONZALEZ, JOAQUIN V. 2469",Villa Del Parque,Comuna 11,-58.498881,-34.610530
193,ELEVACION,CLUB DE BARRIO,club_de_barrio,Elevacion,UNICA,Corrales 3236,,,,,"Ajedrez jovenes y adultos, billar jovenes y adultos,  juegos de salon niños jovenes y adultos,  gimnasia niños y jovenes, adultos y adultos mayores. Yoga jovenes, adultos y adultos mayores . Tango. Actividades culturales.",SALONES - ESCENARIO,CORRALES,3236,CORRALES 3236,Villa Soldati,Comuna 8,-58.441640,-34.663810
151,EL IDEAL,CLUB DE BARRIO,club_de_barrio,El Ideal,UNICA,Montiel 5142,4601-1682,elidealmail@gmail.com - clubelideal@hotmail.com,,,"Escuela de fútbol, FUTSAL, Patín artístico, Gimnasia rítmica, Capoeira, Taekwondo, Kick boxing, Jiu Jit Su, Boxeo, Muay Thai, Danzas árabes, Aerobic, Tango y Salsa. Actividades culturales.",1 cancha - 3 salones,MONTIEL,5142,MONTIEL 5142,Villa Riachuelo,Comuna 8,-58.477458,-34.688441
181,EL TABANO,CLUB DE BARRIO,club_de_barrio,El Tabano,UNICA,Romulo Naon 3029,4544-6193,,"Club social y deportivo El Tabano""""",www.clubeltabano.com.ar,"Gimnasia, Ajedrez, Acrobacia, Danza, Gimnasia Artística y Rítmica, Salsa, Tango, Ritmos Latinos, Árabe, Hip Hop, Reggeaton.",,"NAON, ROMULO",3029,"NAON, ROMULO 3029",Coghlan,Comuna 12,-58.477650,-34.561466
120,EL TALAR,CLUB DE BARRIO,club_de_barrio,El Talar,UNICA,Nueva York 2944/60,4574-1918,clubeltalar@gmail.com  -  clubeltalar@yahoo.com.ar,,,"Basquet masculino y femenino (recreativo y federado desde infantiles hasta veteranos), Fútbol masculino (recreativo y federado desde infantiles hasta veteranos), Patín artístico femenino, Taekwondo (todas las edades), Fitness, Pilates y Gimnasio de musculación.",canchas - salon,NUEVA YORK,2944,NUEVA YORK 2944,Agronomia,Comuna 15,-58.498166,-34.591844
300,ENTRENAR POR LA VIDA,CLUB DE BARRIO,club_de_barrio,Entrenar Por La Vida,UNICA,Camilo Torres 2081,4633-6439,,Gimnasio Jesus Romero E Hijos,www.gimnasiojesusromero.com.ar,"Boxeo, fútbol infantil y mayores, aeróbica, educación física.
",,CAMILO TORRES,2081,"TORRES Y TENORIO, PRES. 2081",Flores,Comuna 7,-58.440433,-34.644554
130,EROS,CLUB DE BARRIO,club_de_barrio,Eros,UNICA,Uriarte 1609,4832-1313,,,,"baby, artes marciales, voley",1 cancha - 2 salones,URIARTE,1609,URIARTE 1609,Palermo,Comuna 14,-58.431845,-34.587365
95,ESTRELLA DE BOEDO,CLUB DE BARRIO,club_de_barrio,Estrella De Boedo,UNICA,Constitucion 4151,4921-9310,estrelladeboedo@yahoo.com.ar,CLUB ESTRELLA DE BOEDO,www.estrelladeboedo.com,"Baby, futsal, básquet, voley, gimnasia, gimnasia deportiva, hándbol, patín, futsal para chicos con capacidades especiales. Actividades culturales.",biblioteca - canchas - salon - natatorio,CONSTITUCION,4151,CONSTITUCION 4151,Boedo,Comuna 5,-58.422969,-34.628894
46,ESTUDIANTES DEL NORTE,CLUB DE BARRIO,club_de_barrio,Estudiantes Del Norte,UNICA,Holmberg 4070/78,4546-0344,estudiantesdn@gmail.com,Club Estudiantes Del Norte,www.estudiantesdelnorte.com.ar,"Fútbol (escuelita y competición), Taekwondo, Patín artístico, Yoga, Boxeo (actividad gratuita) y Vóley recreativo (actividad gratuita). Actividades culturales.",cancha fútbol 5 - salon,HOLMBERG,4070,HOLMBERG 4070,Saavedra,Comuna 12,-58.488038,-34.554290
62,EXCURSIONISTAS,CLUB,club,Excursionistas,UNICA,La Pampa 1376,4788-8007 sandra administrativa,,Club-Atletico-Excursionistas,www.excursionistas.org.ar,"Patin artistico, fútbol femenino, baby fútbol, boxeo,futsal federado AFA, Tenis.",Natatorios,LA PAMPA,1376,LA PAMPA 1376,Belgrano,Comuna 13,-58.443378,-34.558497
183,EXPRESO DE BARILOCHE,CLUB DE BARRIO,club_de_barrio,Expreso De Bariloche,UNICA,Jose Leon Suarez 2472/76,S/T,,,,,Cancha de Futbol - Cancha de Bochas - Pista para Automodelismo - Buffet,"SUAREZ, JOSE LEON",2472,"SUAREZ, JOSE LEON 2472",Mataderos,Comuna 9,-58.509879,-34.665016
182,FENIX CLUB,CLUB DE BARRIO,club_de_barrio,Fenix Club,UNICA,Vallejos 4516,4501-5945,clubfenixdevoto@hotmail.com,FENIX DEVOTO,www.tenisdemesa.fenixdevoto.com.ar,"Escuela de Fútbol recreativa y competitiva infantil para niños de 3 a 14 años. Danza Jazz y Clásico para todas las edades, Ritmos latinos para todas las edades, Taekwondo infantil, Boxeo recreativo para adolescentes y adultos, Kung Fu y Tai Chi para adultos y Tenis de mesa para todas las edades. Actividades culturales","Sum de 6x4, solar que se usa como cancha de fútbol y basquet, cancha de bochas, dos SUM mas.",VALLEJOS,4516,VALLEJOS 4516,Villa Devoto,Comuna 11,-58.521070,-34.600394
77,FLORES CLUB,CLUB DE BARRIO,club_de_barrio,Flores Club,UNICA,Quirno 947,4612-0894,floresclub@argentina.com.ar,,,"Futsal, baby, patin, gimnasia deportiva, danza, artes marciales y yoga.",cancha - salones,QUIRNO,947,QUIRNO 947,Flores,Comuna 7,-58.464205,-34.642569
301,FLORESTA RUGBY CLUB,CLUB DE BARRIO,club_de_barrio,Floresta Rugby Club,,Lacarra 1257,6632-1332,,Floresta Rugby Club,www.florestarugbyclub.com.ar,"Rugby
",,LACARRA AV.,1257,LACARRA AV. 1257,Parque Avellaneda,Comuna 9,-58.474224,-34.645812
133,FRANJA DE ORO,CLUB DE BARRIO,club_de_barrio,Franja De Oro,UNICA,Av. Amancio Alcorta 4007,4911-1566/ 4912-0965,correo@clubfranjadeoro.com.ar,Franja de Oro,www.clubfranjadeoro.com.ar,"Taekwondo, gimnasia deportiva, gimnasia, patín, fisicoculturismo, baby, futsal, yoga, arquería, padel, pesca deportiva, salsa y merengue, natación y yudo. Actividades culturales.",3 canchas-3 salones- natatorio,"ALCORTA, AMANCIO AV.",4007,"ALCORTA, AMANCIO AV. 4007",Nueva Pompeya,Comuna 4,-58.415176,-34.656064
132,FRANJA DE ORO,CLUB DE BARRIO,club_de_barrio,Franja De Oro,UNICA,Av. Amancio Alcorta 3950,4911-1566/ 4912-0965,correo@clubfranjadeoro.com.ar,Franja de Oro,www.clubfranjadeoro.com.ar,"Taekwondo, gimnasia deportiva, gimnasia, patín, fisicoculturismo, baby, futsal, yoga, arquería, padel, pesca deportiva, salsa y merengue, natación y yudo. Actividades culturales.",3 canchas-3 salones- natatorio,"ALCORTA, AMANCIO AV.",3950,"ALCORTA, AMANCIO AV. 3950",Nueva Pompeya,Comuna 4,-58.414494,-34.656077
146,FUNDACION NUEVA GENERACION DEL DEPORTE,CLUB DE BARRIO,club_de_barrio,Fundacion Nueva Generacion Del Deporte,CENTRAL,Av. Juan Bautista Alberdi 4563,4924-8387/1323,,,,"baby, basquet, patin,gimn",2 canchas - 1 salon - biblioteca,"ALBERDI, JUAN BAUTISTA AV.",4563,"ALBERDI, JUAN BAUTISTA AV. 4563",Villa Luro,Comuna 10,-58.490313,-34.642410
145,FUNDACION NUEVA GENERACION DEL DEPORTE,CLUB DE BARRIO,club_de_barrio,Fundacion Nueva Generacion Del Deporte,ANEXO,Quintino Bocayuva 1241,4924-8387/1323,,,,"baby, basquet, patin,gimn",2 canchas - 1 salon - biblioteca,"BOCAYUVA, QUINTINO",1241,"BOCAYUVA, QUINTINO 1241",Boedo,Comuna 5,-58.421084,-34.628287
154,GENERAL LAMADRID,CLUB DE BARRIO,club_de_barrio,General Lamadrid,UNICA,Desaguadero 3120,4567-6239,caglamadrid@caglamadrid.com.ar,Club Atlético General Lamadrid,,"baby, futsal, patin, handbol, voley, fútbol (AFA)",4 canchas - 1 natatorio - 3 salones,DESAGUADERO,3120,DESAGUADERO 3120,Villa Devoto,Comuna 11,-58.514699,-34.612874
76,GIMNASIO CHACABUCO,CLUB DE BARRIO,club_de_barrio,Gimnasio Chacabuco,UNICA,Miro 750/58,4432-5575 de 14 a 22 hs,clubgimnasiochacabuco@yahoo.com.ar,CLUB CHACABUCO,www.clubgchacabuco.com.ar,"Futsal juveniles, reserva, mayores - baby - Patín - Gimdance (nenas y adolescentes), Guitarra para menores, Taekwondo, Yoga, Teatro infantil (taller), salsa, Kendo, bachata, sipalki, boxeo, fútbol, Escuela de fútbol: Federados, participan en FEFI y FAFI (menores), gimnasia aero localizada, aikido, balroom, gimnasio musculación",Canchas - Salón,MIRO,750,MIRO 750,Parque Chacabuco,Comuna 7,-58.446103,-34.631939
140,GIOVANNI GENTILE,CLUB DE BARRIO,club_de_barrio,Giovanni Gentile,UNICA,Juan A. Garcia 5270,4568-2588   y   4566-8448,giovannigentile@fibertel.com.ar,,,"Gimnasia, tango, ajedrez, taekwondo, ping pong, yoga. Actividades culturales.",2 salones - 1 cancha (bochas),"GARCIA, JUAN AGUSTIN",5270,"GARCIA, JUAN AGUSTIN 5270",Velez Sarsfield,Comuna 10,-58.506808,-34.627209
83,GLORIAS ARGENTINAS,CLUB DE BARRIO,club_de_barrio,Glorias Argentinas,UNICA,Bragado 6875,4687-8576,,Club-Glorias-Argentinas-Futbol-Infantil    y    Club-Glorias-Argentinas,www.clubgloriasargentinas.com,"Baby fútbol, futsal, gimnasia deportiva, voley, taekwondo, tango, salsa, merengue",canchas - salon,BRAGADO,6875,BRAGADO 6875,Mataderos,Comuna 9,-58.509886,-34.659277
8,GOLF CLUB JOSE JURADO,CLUB,club,Golf Club Jose Jurado,,Av. Roca 5025,4605-4706,,,,golf,campo de golf,"ROCA, CNEL. AV.",5025,"ROCA, CNEL. AV. 5025",Villa Lugano,Comuna 8,-58.452897,-34.682047
157,GON,CLUB DE BARRIO,club_de_barrio,Gon,ANEXO DEPORTIVO,Cochabamba 3750,4921-2364/0853,circulosunidosgon@gmail.com,CIRCULOSUNIDOSGONOFICIAL,www.circulosunidosgonoficial.com.ar,"Baby fútbol, fútbol femenino, futsal, yoga, danzas folklóricas, tango, salsa y merengue, rollers. Actividades culturales.",biblioteca - 2 salones - 1 cancha,COCHABAMBA,3750,COCHABAMBA 3750,Boedo,Comuna 5,-58.417935,-34.627224
156,GON,CLUB DE BARRIO,club_de_barrio,Gon,CENTRAL,Avda. Pavon 3916/18,4921-2364/0853,circulosunidosgon@gmail.com,CIRCULOSUNIDOSGONOFICIAL,www.circulosunidosgonoficial.com.ar,"Baby fútbol, fútbol femenino, futsal, yoga, danzas folklóricas, tango, salsa y merengue, rollers. Actividades culturales.",biblioteca - 2 salones - 1 cancha,PAVON AV.,3916,PAVON AV. 3916,Boedo,Comuna 5,-58.419568,-34.630672
266,HARRODS GATH Y CHAVES CLUB,CLUB,club,Harrods Gath Y Chaves Club,,Virrey del Pino 1480,4783-5864,info@clubharrods.com.ar,,,"tenis, basket, fútbol, badminton, voley, patin, gimnasia, hockey sobre cesped y patines, taekwondo, tenis de mesa, voley",cancha fútbol 11 - playon - 2 salones - gimasio - canchas de tenis - natatorio,"PINO, VIRREY DEL",1480,"PINO, VIRREY DEL 1480",Belgrano,Comuna 13,-58.442718,-34.560940
155,HOMERO MANZI,CLUB DE BARRIO,club_de_barrio,Homero Manzi,UNICA,Beauchef 1050,4922-3588,clubhomeromanzi@hotmail.com,,,"fútbol, patin, natacion, fútbol femenino, taekwondo",2 natatorios - 3 canchas,BEAUCHEF,1050,BEAUCHEF 1050,Parque Chacabuco,Comuna 7,-58.431837,-34.629664
137,IMPERIO JUNIORS,CLUB DE BARRIO,club_de_barrio,Imperio Juniors,UNICA,Cesar Diaz 3047,4581-8682 / 4585-0833,clubimperiojuniors@hotmail.com,,www.clubimperio.com.ar,"Básquet, boxeo, buceo, yoga, gimnasia aeróbica, gimnasia artística y acrobática, waterpolo, natación, aquagym, aguas abiertas, pileta libre, iniciación deportiva, patín, voley veteranos, artes marciales, tango, folklore.","biblioteca, 5 canchas, 3 salones, natatorio climatizado","DIAZ, CESAR, GRAL.",3047,"DIAZ, CESAR, GRAL. 3047",Villa Santa Rita,Comuna 11,-58.481029,-34.615427
79,ISLANDIA,CLUB DE BARRIO,club_de_barrio,Islandia,UNICA,Nuñez 5566,S/T,,,,"Gimnasia, karate, futsal, tango, murga, canotaje.",cancha - salon,NUÑEZ,5566,NUÑEZ 5566,Villa Urquiza,Comuna 12,-58.497582,-34.565836
105,ITALIANO,CLUB DE BARRIO,club_de_barrio,Italiano,ANEXO deportivo,Av. Riestra 2770,,clubitaliano@clubitaliano.com.ar,Club Italiano - Buenos Aires Liga deportiva,www.clubitaliano.com.ar,"Básquet, fútbol, gimnasia artística, gimnasia rítmica, hockey, judo, natación, pelota paleta, iniciación deportiva, rugby, tenis, vóley, yoga, kendo, sipalki, taekwondo, danzas árabes, folklore. Actividades culturales. Colonia de vacaciones.",canchas - salones - natatorio,RIESTRA AV.,2770,RIESTRA AV. 2770,Villa Soldati,Comuna 8,-58.446088,-34.652461
104,ITALIANO,CLUB DE BARRIO,club_de_barrio,Italiano,CENTRAL Sede social,Av. Rivadavia 4731,4901-1061/63,clubitaliano@clubitaliano.com.ar,Club Italiano - Buenos Aires Liga deportiva,www.clubitaliano.com.ar,"Básquet, fútbol, gimnasia artística, gimnasia rítmica, hockey, judo, natación, pelota paleta, iniciación deportiva, rugby, tenis, vóley, yoga, kendo, sipalki, taekwondo, danzas árabes, folklore. Actividades culturales. Colonia de vacaciones.",canchas - salones - natatorio,RIVADAVIA AV.,4731,RIVADAVIA AV. 4731,Caballito,Comuna 6,-58.432284,-34.616356
21,JORGE NEWBERY,CLUB DE BARRIO,club_de_barrio,Jorge Newbery,UNICA,Irigoyen 2050,4642-4859,jnfutsal@gmail.com,Jorge Newbery Futsal,www.jnfutsal.blogspot.com.ar,"Gimnasia artistica, fútbol, padel, patin, gimnasia ritmica, baby, futsal, clases de folklore, taekwondo. Actividades culturales.","canchas de baby, canchas de padel, salones",IRIGOYEN,2050,IRIGOYEN 2050,Villa Real,Comuna 10,-58.524340,-34.622389
38,JOSE HERNANDEZ,CLUB DE BARRIO,club_de_barrio,Jose Hernandez,UNICA,Bragado 5950,4635-2323,asocjosehernandez@hotmail.com,JOSE HERNANDEZ,,"patin, voley, gimnasia, gimnasia deportiva, artes marciales, danza, ajedrez, yoga, gimnasia artística, danza jazz","gimnasios, canchas, salon, biblioteca, natatorio",BRAGADO,5950,BRAGADO 5950,Mataderos,Comuna 9,-58.502739,-34.653441
70,JOVENES DEPORTISTAS - ASOCIACION CIVIL GENERAL SAVIO,CLUB DE BARRIO,club_de_barrio,Jovenes Deportistas - Asociacion Civil General Savio,UNICA,Soldado de la Frontera 5236,4605-0701,jovenesdeportistas1994@gmail.com,JOVENES DEPORTISTAS,,"Fútbol 11, patin, gimnasia modeladora, localizada, aeróbica, danza arabe, hockey, baby, fútbol femenino, axe, musculacion, artes marciales, kick boxing, muai tai, boxeo.",biblioteca - canchas - salon,SOLDADO DE LA FRONTERA AV.,5236,SOLDADO DE LA FRONTERA AV. 5236,Villa Lugano,Comuna 8,-58.463207,-34.685475
107,JUVENTUD DE LA NUEVA ERA,CLUB DE BARRIO,club_de_barrio,Juventud De La Nueva Era,UNICA,Gral. J. J. Valle 2972,4911-9022,,ASOCIACION CULTURAL Y DEPORTIVA JUVENTUD DE LA NUEVA ERA,,"baby fútbol, taekwondo y voley",cancha,"VALLE, J.J., GRAL. DIV.",2972,"VALLE, J.J., GRAL. DIV. 2972",Nueva Pompeya,Comuna 4,-58.421568,-34.650762
86,JUVENTUD DE LINIERS,CLUB DE BARRIO,club_de_barrio,Juventud De Liniers,UNICA,Montiel 1174,4641-9295,,Juventud de Liniers,www.juventuddeliniers.org.ar,"Futbol infantil, patín artístico, gimnasia artística, taekwondo, gimnasia damas, yoga, kick boxing sistema ruso y danza. Actividades culturales.",cancha - salon,MONTIEL,1174,MONTIEL 1174,Liniers,Comuna 9,-58.524750,-34.652003
205,JUVENTUD UNIDA,CLUB DE BARRIO,club_de_barrio,Juventud Unida,,Iriarte 3276,4301-2541,,,,"artes marciales, gimnasia, handbol, futsal",1 gimnasio,"IRIARTE, GRAL. AV.",3276,"IRIARTE, GRAL. AV. 3276",Barracas,Comuna 4,-58.393918,-34.651530
163,JUVENTUD UNIDA DE VILLA SOLDATI,CLUB DE BARRIO,club_de_barrio,Juventud Unida De Villa Soldati,UNICA,Av. Intendente Rabanal 2821,S/T,,,,"baby, bochas, taekwondo",,"RABANAL, FRANCISCO, INTENDENTE AV.",2821,"RABANAL, FRANCISCO, INTENDENTE AV. 2821",Villa Soldati,Comuna 8,-58.435268,-34.662467
33,KANAIMA ASOCIACION CIVIL,CLUB DE BARRIO,club_de_barrio,Kanaima Asociacion Civil,,Agrelo 3356,4932-9926,kanaima_org@yahoo.com.ar,,,"baby, gimnasia, teatro, tango",cancha - salon,AGRELO,3356,AGRELO 3356,Almagro,Comuna 5,-58.413543,-34.618222
57,KIMBERLEY,CLUB DE BARRIO,club_de_barrio,Kimberley,UNICA,Joaquin V.Gonzalez 3238,4502-9888,,,,"patin artistico, futsal, baby,",salon - cancha,"GONZALEZ, JOAQUIN V.",3238,"GONZALEZ, JOAQUIN V. 3238",Villa Devoto,Comuna 11,-58.505007,-34.603749
98,LA EMILIANA,CLUB DE BARRIO,club_de_barrio,La Emiliana,UNICA,Terrada 4243,4571-1271,clublaemiliana@yahoo.com.ar,CLUB LA EMILIANA,,"Juegos de salón, boxeo, defensa personal, taekwondo, full contact, karate, patín, gimnasia rítmica, gimnasia para adultos, folklore, tango, ajedrez. Actividades culturales.",salon - cancha de bochas,TERRADA,4243,TERRADA 4243,Villa Pueyrredon,Comuna 12,-58.497990,-34.588896
114,LA FLORESTA,CLUB DE BARRIO,club_de_barrio,La Floresta,UNICA,Avellaneda 3885,4671-7851 / 4626,clublafloresta@hotmail.com,,,"Gimnasia femenina, artes marciales, tango, natación, yoga, ajedrez Escuela de fútbol. Actividades culturales.",biblioteca - cancha - salones -  natatorio,AVELLANEDA AV.,3885,AVELLANEDA AV. 3885,Floresta,Comuna 10,-58.483426,-34.629352
166,LAURELES ARGENTINOS,CLUB DE BARRIO,club_de_barrio,Laureles Argentinos,UNICA,Laureles Argentinos 5056,4639-4785,laurelesargentinos@hotmail.com    -   laurelesargentinos@live.com.ar,Laureles Argentinos,,"Baby, patin, taekwondo, salsa, merengue y folklore",1 salon y 1 cancha,LAURELES ARGENTINOS,5056,LAURELES ARGENTINOS 5056,Villa Devoto,Comuna 11,-58.515138,-34.616472
186,LAWN TENNIS,CLUB,club,Lawn Tennis,UNICA,Olleros 1510,4772-0183,secretaria@baltc.net,"Buenos Aires Lawn Tennis Club
Organización sin fines de lucro",www.baltc.net,"Fútbol, natación, tenis, gimnasio, escuela de tenis, bridge, escuela argentina de árbitros de tenis.",1 gimnasio-3 salones-1 natatorio-1 cancha de fútbol para 7 jugadores - 20 canchas de tenis incluyendo estadio central con capacidad para 4800 espectadores - estacionamiento.,OLLEROS AV.,1510,OLLEROS AV. 1510,Palermo,Comuna 14,-58.433333,-34.560985
138,LIGA AMATEUR DE FUTBOL DE FLORES ASOCIACION CIVIL,CLUB DE BARRIO,club_de_barrio,Liga Amateur De Futbol De Flores Asociacion Civil,UNICA,Av. Castañares 4125,4602-0711,info@laff.com.ar,LIGA AMATEUR FUTBOL FLORES,www.laff.com.ar,"Fútbol 11, escuela de fútbol.",4 canchas,CASTAÑARES AV.,4125,CASTAÑARES AV. 4125,Villa Lugano,Comuna 8,-58.465646,-34.661191
51,LINIERS CLUB,CLUB DE BARRIO,club_de_barrio,Liniers Club,UNICA,Palmar 7035,4644-7651  4641-0532,,,,"Natación, Acquagym, Pileta libre, Escuelita de fútbol, Gimnasio de complementos, Zumba, Gimnasia artística, Patín, Boxeo, Basquet, Sipalki, Taekwondo y Pilates","natatorios, salones, cancha, gimnasio",PALMAR,7035,PALMAR 7035,Liniers,Comuna 9,-58.525492,-34.643683
220,LOMAS DE LUGANO SOCIAL CLUB,CLUB DE BARRIO,club_de_barrio,Lomas De Lugano Social Club,,Albariño 3619,4638-9859,,,,"tango, coro, baby, artes marciales",2 salones - 1 cancha,ALBARIÑO,3619,ALBARIÑO 3619,Villa Lugano,Comuna 8,-58.470218,-34.670926
47,LOS AMIGOS DE VILLA LURO,CLUB DE BARRIO,club_de_barrio,Los Amigos De Villa Luro,,Ramon L. Falcon 5176,4683-4740,,AVL NATACION AVL FUTBOL,www.amigosdevillaluro.com.ar,"Fútbol infantil, Futsal, Fútbol femenino, Taekwondo (ITF y WTF), Vóley, Patín artístico, Gimnasia artística, Básquet infantil, Hándbol, Escuela de danzas, Ajedrez, Folklore. Natatorio climatizado y Gimnasio de musculación. Actividades culturales.",biblioteca - canchas - salones - natatorio,"FALCON, RAMON L.,CNEL.",5176,"FALCON, RAMON L.,CNEL. 5176",Villa Luro,Comuna 10,-58.500226,-34.638864
115,LUGANO FOOTBALL CLUB,CLUB DE BARRIO,club_de_barrio,Lugano Football Club,UNICA,Lisandro de la Torre 4640,4605-6153,,,,"Boxeo, Kick boxing, Taekwondo, Salsa, Danza clásica, Tap, Jazz, Gimnasia rítmica, Hip hop y Pilates sobre piso.Actividades culturales.",salones,"DE LA TORRE, LISANDRO",4640,"DE LA TORRE, LISANDRO 4640",Villa Lugano,Comuna 8,-58.474055,-34.683424
221,LUGANO TENNIS CLUB,CLUB,club,Lugano Tennis Club,,Murguiondo 3915,4602-2019,luganotennisclub@hotmail.com,,,"baby, patin, handbol, taekwondo, karate, teatro,",4 canchas (1 de pelota-paleta) - 2 salones - 1 natatorio,MURGUIONDO,3915,MURGUIONDO 3915,Villa Lugano,Comuna 8,-58.479224,-34.674362
286,MADRE DEL PUEBLO,CLUB DE BARRIO,club_de_barrio,Madre Del Pueblo,UNICA,MANZANA 3 CASA 1 VILLA 1-11-14,,solcaacupe@hotmail.com,C A MADRE DEL PUEBLO,,"Hockey, fútbol, natación, patín artístico, rugby, atletismo, ajedrez, fútbol femenino, voley. Actividades culturales.",Sede Madre del Pueblo - Manzana 3 casa 1: Cancha de fútbol 7 (uso comunitario barrial) - Secretaria del Club - Salón Multiuso. Sede San Antonio - Manzana 31 casa 31: Cancha de fútbol 5 (uso comunitario barrial) - Salón Multiuso. Sede Virgen de Itati - Manzana 13 casa 82: Cancha de fútbol 5 (uso comunitario barrial) - Salón Multiuso. Sede Virgen de Copacabana - (Barrio Charrua. Calle Charrua e Itaqui): Cancha de fútbol 5  (uso comunitario barrial) - Salón Multiuso. ,Moreno Perito Av,1800,"MORENO, PERITO AV. 1800",Flores,Comuna 7,-58.432917,-34.650451
117,MANUEL BELGRANO,CLUB DE BARRIO,club_de_barrio,Manuel Belgrano,SEDE SOCIAL EN CABA Y ANEXO EN ESCOBAR,Crisologo Larralde 5255,4541-1551,administracion@clubmanuelbelgrano.com.ar,Club Manuel Belgrano - Rugby & Hockey,www.clubmanuelbelgrano.com.ar,hockey - rugby,canchas - salones,"LARRALDE, CRISOLOGO AV.",5255,"LARRALDE, CRISOLOGO AV. 5255",Saavedra,Comuna 12,-58.494903,-34.562726
184,MARIANO ACOSTA,CLUB DE BARRIO,club_de_barrio,Mariano Acosta,UNICA,Mariano Acosta 1544,4612-4412,sfmacosta@yahoo.com.ar,,,"Patín, ajedrez, tango, danzas árabes, gimnasia femenina, baby fútbol, Kick Boking, Taekwondo, peñas de tango y folklore. Actividades culturales.",1 cancha - 1 salon de usos múltiples en el primer piso - Gimnasio cubierto (de 18 metros por 2S metros) para variadas disciplinas. Buffet - Baño para personas con movilidad reducida (en la planta baja).,"ACOSTA, MARIANO",1544,"ACOSTA, MARIANO 1544",Parque Avellaneda,Comuna 9,-58.465375,-34.647303
96,MARIANO MORENO,CLUB DE BARRIO,club_de_barrio,Mariano Moreno,UNICA,Gral Ramon Freire 3151,5354-5332,info@clubmarianomoreno.org.ar,Club Mariano Moreno - Ajedrez,www.clubmarianomoreno.org.ar,"ajedrez, juegos de mesa, bIllar",salon,"FREIRE, RAMON, CAP. GRAL.",3151,"FREIRE, RAMON, CAP. GRAL. 3151",Coghlan,Comuna 12,-58.472218,-34.557168
73,NAUTICO BOUCHARDO,CLUB,club,Nautico Bouchardo,SEDE NUÑEZ (TIENEN OTRA SEDE EN SAN ISIDRO),Comodoro Rivadavia  1250,4702-9970 / 9837,administracion@cnb.org.ar    -    secretaria@cnb.org.ar,"Club Náutico Buchardo - Sede Núñez
Club deportivo",www.cnb.org.ar,"Tenis, fútbol, voley, básquet, gimnasia. Vela. Actividades culturales.",Juegos de mesa. Cine debate.,"RIVADAVIA MARTIN, COMODORO",1250,"RIVADAVIA MARTIN, COMODORO 1250",Nuñez,Comuna 13,-58.459851,-34.538272
45,NUESTRO BUENOS AIRES CANBA,CLUB DE BARRIO,club_de_barrio,Nuestro Buenos Aires Canba,UNICA,San Blas 4577,4567-4439 / 4648-3577,,,,"baby fútbol, patin, voley",cancha - salon,SAN BLAS,4577,SAN BLAS 4577,Velez Sarsfield,Comuna 10,-58.499332,-34.623187
171,NUEVA CHICAGO,CLUB,club,Nueva Chicago,ANEXO ESTADIO,Justo Suárez 6900,,,Pileta de Nueva Chicago / Mundo Chicagoo,www.mundochicago.com.ar,"Fútbol, hockey, baby, futsal, fútbol femenino, básquet, voley, patin artístico, gimnasia, artes marciales, natación, arabe, tango, ajedrez. Colonia de vacaciones.","salones, canchas y natatorio climatizado","SUAREZ, JUSTO ANTONIO",6900,"SUAREZ, JUSTO ANTONIO 6900",Mataderos,Comuna 9,-58.500479,-34.667528
170,NUEVA CHICAGO,CLUB,club,Nueva Chicago,CENTRAL SEDE SOCIAL,Lisandro de la Torre 2288,4687-2538/1673,,Pileta de Nueva Chicago / Mundo Chicagoo,www.mundochicago.com.ar,"Fútbol, hockey, baby, futsal, fútbol femenino, básquet, voley, patin artístico, gimnasia, artes marciales, natación, arabe, tango, ajedrez. Colonia de vacaciones.","salones, canchas y natatorio climatizado","DE LA TORRE, LISANDRO AV.",2288,"DE LA TORRE, LISANDRO AV. 2288",Mataderos,Comuna 9,-58.501829,-34.661187
162,OBRAS SANITARIAS NACION,CLUB,club,Obras Sanitarias Nacion,CENTRAL,Av. Libertador 7395,4702-4655/9467,secretariaclub@clubosn.com.ar,Club Obras,www.clubosn.com.ar,"ESCUELAS DEPORTIVAS (Basquet, Natación, Hockey, Juegos-efi, Ajedrez (segundo deporte del Club), Taekwondo, Fútbol, Nado sincronizado, Tenis de mesa) - Basquet FEDERATIVO (minibasquet, premini-infantiles, sub15, sub17, sub19, sub23, primera, liga nacional, veteranos) , Rugby, Natación, Voley (veteranos). Colonia de vacaciones",canchas de tenis - microestadio - cancha de voley - cancha de basquet - gimnasio - natatorio,DEL LIBERTADOR AV.,7395,DEL LIBERTADOR AV. 7395,Nuñez,Comuna 13,-58.458245,-34.545782
161,OBRAS SANITARIAS NACION,CLUB,club,Obras Sanitarias Nacion,ANEXO SOCIAL (SPORTCLUB),Paraguay 2060,4702-4655/9467,secretariaclub@clubosn.com.ar,Club Obras,www.clubosn.com.ar,"ESCUELAS DEPORTIVAS (Basquet, Natación, Hockey, Juegos-efi, Ajedrez (segundo deporte del Club), Taekwondo, Fútbol, Nado sincronizado, Tenis de mesa) - Basquet FEDERATIVO (minibasquet, premini-infantiles, sub15, sub17, sub19, sub23, primera, liga nacional, veteranos) , Rugby, Natación, Voley (veteranos). Colonia de vacaciones",canchas de tenis - microestadio - cancha de voley - cancha de basquet - gimnasio - natatorio,PARAGUAY,2060,PARAGUAY 2060,Recoleta,Comuna 2,-58.396576,-34.598686
199,ORGANIZACION HEBREA ARGENTINA MACABI,CLUB,club,Organizacion Hebrea Argentina Macabi,,Tucuman 3135,4963-8783,secretaria.general@macabi.com.ar,,,"voley, basquet, patin, handbol, natacion, otros",,TUCUMAN,3135,TUCUMAN 3135,Balvanera,Comuna 3,-58.409640,-34.600716
80,ORGANIZACION INDEPENDIENTE DEL DEPORTE ASOCIACION CIVIL,CLUB DE BARRIO,club_de_barrio,Organizacion Independiente Del Deporte Asociacion Civil,UNICA,Pedro Moran 4801,4568-5871,,,,patin,canchas,"MORAN, PEDRO",4801,"MORAN, PEDRO 4801",Villa Devoto,Comuna 11,-58.520281,-34.607544
103,PACIFICO,CLUB DE BARRIO,club_de_barrio,Pacifico,UNICA,Santo Tome 3823,4567-2791,clubpacifico12deoctubre@gmail.com,,,"Baby fútbol, voley, Gimnasia Deportiva, futsal, Artes Marciales, Ajedrez, Capoeira.",salones - cancha - biblioteca,SANTO TOME,3823,SANTO TOME 3823,Villa Del Parque,Comuna 11,-58.497673,-34.610877
149,PALERMO,CLUB DE BARRIO,club_de_barrio,Palermo,UNICA,Fitz  Roy 2238,4771-0328/ 4778-1419,,,,"baby fútbol, voley, basquet, artes
marciales, arqueria",2 canchas - 3 salones,FITZ ROY,2238,FITZ ROY 2238,Palermo,Comuna 14,-58.431584,-34.579946
121,PAMPERO,CLUB DE BARRIO,club_de_barrio,Pampero,UNICA,Larrazabal 3035,4604-4500,,CLUB PAMPERO,www.clubpampero.com.ar,"Baby, artes marciales, tango, folklore y patin artistico. Boxeo.",cancha - salon,LARRAZABAL,3035,LARRAZABAL 3035,Villa Lugano,Comuna 8,-58.483674,-34.667514
127,PARQUE DE LOS PATRICIOS,CLUB DE BARRIO,club_de_barrio,Parque De Los Patricios,ANEXO,Constitución 2827,4308-2925,clubparquedelospatricios@yahoo.com.ar,,,"Taekwondo, patin, voley, fútbol, FAFI, FEFUTIN, danza, gimnasia adultos.",cancha - salon,CONSTITUCION,2827,CONSTITUCION 2827,San Cristobal,Comuna 3,-58.404359,-34.626770
126,PARQUE DE LOS PATRICIOS,CLUB DE BARRIO,club_de_barrio,Parque De Los Patricios,CENTRAL,Alberti  2135,4308-2925,clubparquedelospatricios@yahoo.com.ar,,,"Taekwondo, patin, voley, fútbol, FAFI, FEFUTIN, danza, gimnasia adultos.",cancha - salon,ALBERTI,2135,ALBERTI 2135,Parque Patricios,Comuna 4,-58.397788,-34.634893
150,PARQUE TELMO,CLUB DE BARRIO,club_de_barrio,Parque Telmo,UNICA,Cochabamba 311,4300-5834/8664,,A.C.PARQUE TELMO,,baby-futsal-voley-handbol,1 cancha-1 salon-1 biblioteca,COCHABAMBA,311,COCHABAMBA 311,San Telmo,Comuna 1,-58.370020,-34.622919
27,PEDRO ECHAGUE,CLUB DE BARRIO,club_de_barrio,Pedro Echague,UNICA,Portela 840,4637-0843  4612-0117,icdpedroechague@hotmail.com,I. C.D. CLUB PEDRO ECHAGUE,www.icdpedroechague.com,"basquet, futsal, baby, voley, patin, handbol, karate, taekwondo, teatro, gimnasio de musculacion, teatro, coro, iniciacion deportiva, gimnasia acrobatica",3 canchas - 1 salon - gimnasio,PORTELA,840,PORTELA 840,Flores,Comuna 7,-58.468613,-34.641855
48,PENACHO AZUL,CLUB DE BARRIO,club_de_barrio,Penacho Azul,UNICA,Jose P. Tamborini 5658/76,4543-7910 / 4545-5552,,PENACHO AZUL,,"Fútbol infantil, fútbol de competicion, taekwondo, patin artistico, patin de competicion, artes marciales, gimnasia artistica. Actividades culturales.",canchas,"TAMBORINI, JOSE PASCUAL",5658,"TAMBORINI, JOSE PASCUAL 5658",Villa Urquiza,Comuna 12,-58.497796,-34.569441
85,PEÑAROL ARGENTINO,CLUB DE BARRIO,club_de_barrio,Peñarol Argentino,UNICA,Zañartu 1547,4924-2111,,CLUB PEÑAROL ARGENTINO,,"Atletismo, baby, futsal, voley, gimnasia artistica, yoga, gimnasia aerobica, aikido, kundo, taekwondo, patin.",canchas - salones,ZAÑARTU,1547,ZAÑARTU 1547,Parque Chacabuco,Comuna 7,-58.439217,-34.640689
84,PINTITA,CLUB DE BARRIO,club_de_barrio,Pintita,UNICA,Mariano Acosta 2005,4611-1181,,,,"Baby, futsal, patín.",canchas - salon,"ACOSTA, MARIANO",2005,"ACOSTA, MARIANO 2005",Flores,Comuna 7,-58.460524,-34.651552
165,PORTUGUES,CLUB DE BARRIO,club_de_barrio,Portugues,CENTRAL (TIENEN ANEXO EN PROVINCIA),Pedro Goyena 1468,4432-5801,clubportugues@hotmail.com,,,"Acrobacia, tango, yoga, artes marciales, gimnasia.",2 salones,"GOYENA, PEDRO AV.",1468,"GOYENA, PEDRO AV. 1468",Caballito,Comuna 6,-58.447838,-34.627729
100,PREMIER,CLUB DE BARRIO,club_de_barrio,Premier,UNICA,Campichuelo 472,4982-7637,,Club Premier,www.clubpremier.org.ar,"Danza, baby, patin, taekwondo, yoga, voley, aikido, kung-fu, gimnasia artistica, tela y trapecio.",cancha - salones,CAMPICHUELO,472,CAMPICHUELO 472,Caballito,Comuna 6,-58.435204,-34.611906
74,PRO FOMENTO PUEYRREDON,CLUB DE BARRIO,club_de_barrio,Pro Fomento Pueyrredon,UNICA,Bazurco 2922,4571-6950,jpueyrre@yahoo.com.ar,,,"Baby fútbol, voley, basket, patin artistico, taekwondo, gimnasia con aparatos .",canchas - salon,BAZURCO,2922,BAZURCO 2922,Villa Pueyrredon,Comuna 12,-58.507919,-34.581254
125,RAULIES,CLUB DE BARRIO,club_de_barrio,Raulies,UNICA,Raulies 2043,4523-9715,csydraulies@gmail.com,,,Arquería,salon - cancha,RAULIES,2043,RAULIES 2043,Paternal,Comuna 15,-58.477468,-34.599105
113,RESURGIMIENTO,CLUB DE BARRIO,club_de_barrio,Resurgimiento,UNICA,Gral. Artigas 2262,4585-4960,resurgimiento@fibertel.com.ar,CENTRO CULTURAL RESURGIMIENTO,,"Fútbol, gimnasia aeróbica, gimnasia deportiva, artística, circo, acrobacia, artes marciales (taekwondo), salsa, merengue, danza árabe, clásica, jazz, folklore, hip hop, tango, yoga, gimnasia expresiva.  Actividades culturales.",biblioteca - cancha - salon,"ARTIGAS, JOSE GERVASIO, GRAL.",2262,"ARTIGAS, JOSE GERVASIO, GRAL. 2262",Villa Del Parque,Comuna 11,-58.478148,-34.606538
110,RIESTRA,CLUB,club,Riestra,ANEXO,Varela y Ana Maria Janer,4918-0455,mundoriestra@hotmail.com,,www.mundoriestra.com.ar,"yoga, gimnasia, patin, teatro, tango, salsa y merengue y futball",salones - canchas,VARELA AV.,,"VARELA AV. y JANER, ANA MARIA",Villa Soldati,Comuna 8,-58.441633,-34.652929
109,RIESTRA,CLUB,club,Riestra,CENTRAL,Del Bañado 2353/59,4918-0455,mundoriestra@hotmail.com,,www.mundoriestra.com.ar,"Yoga, gimnasia, patin, tango, salsa y merengue. Fútbol. Actividades culturales.",salones - canchas,DEL BAÑADO,2353,DEL BAÑADO 2353,Nueva Pompeya,Comuna 4,-58.427842,-34.644222
101,RIO DE LA PLATA,CLUB DE BARRIO,club_de_barrio,Rio De La Plata,UNICA,Ibera 5257,4546-0380,clubriodelaplata@fibertel.com.ar,,,"Fútbol infantil, voley, taekwondo, patin, tenis de mesa, musculacion, yoga, danzas, boxeo.",cancha - salones,IBERA,5257,IBERA 5257,Villa Urquiza,Comuna 12,-58.492510,-34.567993
61,SABER,CLUB DE BARRIO,club_de_barrio,Saber,UNICA,Llerena 2725/27,4521-8146,,,,"Baby fútbol, patin, voley, gimnasia, artes marciales, tango, gimnasia deportiva, danza, ajedrez. Actividades culturales.",cancha - salon,LLERENA,2725,LLERENA 2725,Parque Chas,Comuna 15,-58.476411,-34.586595
304,sacachispa,CLUB DE BARRIO,club_de_barrio,,moron,1577,1561870920,mail@gmail.com,@museodelcineba,http://www.guiaoleo.com.ar/restaurantes/Sarkis-48,,,las tunas,11122,LAS TUNAS 11122,Liniers,Comuna 9,-58.521601,-34.639639
71,SANTA LUCIA,CLUB DE BARRIO,club_de_barrio,Santa Lucia,UNICA,Montes de Oca 1517,4301-0996  3529-7776,,,,"Escuelas deportivas de danza, boxeo, patín artístico fútbol y handbol y karate.",gimnasio - cancha - salon,"MONTES DE OCA, MANUEL AV.",1517,"MONTES DE OCA, MANUEL AV. 1517",Barracas,Comuna 4,-58.373485,-34.644930
30,SAN TELMO,CLUB,club,San Telmo,ANEXO GIMNASIO CENTENARIO,Peru 1360,4-300-8965 / 4-300-8902,soydetelmo@hotmail.com,Club Atletico San Telmo,www.soydetelmo.com.ar,"Fútbol profesional, Handball federado damas y caballeros, Hockey federado damas y caballeros, Boxeo federado, Patín artístico, Escuela de fútbol, Fútbol femenino, Gimnasia para adultos. Clases de tango. Actividades culturales.",,PERU,1360,PERU 1360,San Telmo,Comuna 1,-58.374020,-34.623895
29,SAN TELMO,CLUB,club,San Telmo,ANEXO FUTBOL INFANTIL,Cochabamba 657,4-300-8965 / 4-300-8902,soydetelmo@hotmail.com,Club Atletico San Telmo,www.soydetelmo.com.ar,"Fútbol profesional, Handball federado damas y caballeros, Hockey federado damas y caballeros, Boxeo federado, Patín artístico, Escuela de fútbol, Fútbol femenino, Gimnasia para adultos. Clases de tango. Actividades culturales.",,COCHABAMBA,657,COCHABAMBA 657,San Telmo,Comuna 1,-58.374877,-34.623285
28,SAN TELMO,CLUB,club,San Telmo,CENTRAL,Peru 1362,4-300-8965 / 4-300-8902,soydetelmo@hotmail.com,Club Atletico San Telmo,www.soydetelmo.com.ar,"Fútbol profesional, Handball federado damas y caballeros, Hockey federado damas y caballeros, Boxeo federado, Patín artístico, Escuela de fútbol, Fútbol femenino, Gimnasia para adultos. Clases de tango. Actividades culturales.",,PERU,1362,PERU 1362,San Telmo,Comuna 1,-58.374010,-34.624025
5,SAN TELMO,CLUB,club,San Telmo,ANEXO POLIDEPORTIVO CENTENARIO,Bolivar 1257,4-300-8965 / 4-300-8902,soydetelmo@hotmail.com,Club Atletico San Telmo,www.soydetelmo.com.ar,"Fútbol profesional, Handball federado damas y caballeros, Hockey federado damas y caballeros, Boxeo federado, Patín artístico, Escuela de fútbol, Fútbol femenino, Gimnasia para adultos. Clases de tango. Actividades culturales.",,BOLIVAR,1257,BOLIVAR 1257,San Telmo,Comuna 1,-58.372810,-34.622513
41,SANTIAGO DE LINIERS,CLUB DE BARRIO,club_de_barrio,Santiago De Liniers,UNICA,Caaguazú 6131/51,4641-2839,,,www.santiagodeliniers.com.ar,"Fútbol, Patín artístico, Taekwondo, Gimnasia artística y Netball. Colonia de vacaciones.",canchas - salon - natatorio,CAAGUAZU,6131,CAAGUAZU 6131,Liniers,Comuna 9,-58.514711,-34.643460
251,SOCIAL CULTURAL Y DEPORTIVO FRIULANA,CLUB DE BARRIO,club_de_barrio,Social Cultural Y Deportivo Friulana,,Navarro 3974,4501-0764,friulana@fibertel.com.ar,,,"gimnasia, yoga, taekwondo, bochas, ajedrez, tango",salon - gimnasio cancha de bochas - biblioteca,NAVARRO,3974,NAVARRO 3974,Villa Devoto,Comuna 11,-58.508583,-34.602720
82,SOCIAL HABANA,CLUB DE BARRIO,club_de_barrio,Social Habana,UNICA,Av. Lastra 4175,450-41065,,,,"gimnasia deportiva, artes marciales, ajedrez, danza arabe, yoga, folklore.",salon,LASTRA AV.,4175,LASTRA AV. 4175,Villa Devoto,Comuna 11,-58.523599,-34.605822
19,SOCIAL Y DEPORTIVO VILLA MODELO,CLUB DE BARRIO,club_de_barrio,Social Y Deportivo Villa Modelo,UNICA,Arizmendi 2686,,,,,gimnasia ritmica - ajedrez - acrobacia - yoga - gimnasia para adultos,salones,ARISMENDI,2686,ARISMENDI 2686,Parque Chas,Comuna 15,-58.476851,-34.584908
4,SOCIEDAD HEBRAICA ARGENTINA,CLUB,club,Sociedad Hebraica Argentina,CENTRAL CABA Y SEDE PILAR,Sarmiento 2233,4952-5887    4953-4117/2914    4952-5880,hebraica@hebraica.org.ar,SOCIEDAD HEBRAICA ARGENTINA - PAGINA OFICIAL,www.hebraica.org.ar,"Futsal, basket, voley, judo, karate, ajedrez, fútbol 11, hockey, rugby, tenis de mesa, gimnasia, natacion, pesas, tenis, golf,voley femenino,fútbol femenino.",canchas - salones - natatorio - gimnasios,SARMIENTO,2233,SARMIENTO 2233,Balvanera,Comuna 3,-58.398611,-34.606002
124,SPORTING SOCIAL CLUB,CLUB DE BARRIO,club_de_barrio,Sporting Social Club,UNICA,Heredia 1253,4551-9079,,CLUB SPORTING VILLA ORTUZAR,,"Patin, gimnasia deportiva, taekwondo, tango, yoga, baile para chicos, salsa, fútbol.",salones - cancha,HEREDIA,1253,HEREDIA 1253,Villa Ortuzar,Comuna 15,-58.463186,-34.578972
44,STENTOR,CLUB DE BARRIO,club_de_barrio,Stentor,UNICA,Sarachaga 5634,4683-5712,clubstentor@yahoo.com.ar,,,"Fútbol infantil (FAFI) de 4 a 13 años, Futsal (de 14 años en adelante), Liga Metropolitana, Futsal Señor (para mayores de 35 años), Gimnasia, boxeo, Kick Boxing, Localizada,Yoga, Body Pump, Defensa personal, Kungfu, taekwondo, sanda y merengue.",cancha - salon,SARACHAGA,5634,SARACHAGA 5634,Villa Luro,Comuna 10,-58.504673,-34.634569
108,SUNDERLAND CLUB,CLUB DE BARRIO,club_de_barrio,Sunderland Club,UNICA,Lugones 3161,4544-1649 / 4541-9776,,,,"Fútbol, Basquet, Patín y Taekwondo. Clases de tango, salsa y bachata.",canchas - salon,LUGONES,3161,LUGONES 3161,Villa Urquiza,Comuna 12,-58.484998,-34.564929
17,TELEGRAFO Y CRISOL UNIDOS,CLUB DE BARRIO,club_de_barrio,Telegrafo Y Crisol Unidos,UNICA,Zarasa 951/953/957,4925-5830,,,,baby fútbol - patin - karate - taekwondo - kick boxing - tenis de mesa - gimnasia aerobica - tango - arqueria,1 cancha - 3 salones,SARAZA,951,SARAZA 951,Parque Chacabuco,Comuna 7,-58.431299,-34.637963
12,TENIS CLUB ARGENTINO,CLUB,club,Tenis Club Argentino,SEDE PALERMO - TIENEN OTRA SEDE EN OLIVOS,"Valentin Alsina 4375, y Belisario Roldán, detrás del planetario",4772-1744/4507/9769,secretaria@tenisclubargentino.com,,www.tenisclubargentino.com/,tenis,3 salones - cancha de fútbol - 21 canchas de tenis,"ALSINA, VALENTIN AV.",,"ALSINA, VALENTIN AV. y ROLDAN, BELISARIO AV.",Palermo,Comuna 14,-58.412833,-34.569176
303,test,CLUB,club,,moron,1577,1561870920,mail@gmail.com,@museodelcineba,http://www.guiaole.com.ar/restaurantes/Sarkis-48,,,las tunas,11122,LAS TUNAS 11122,Liniers,Comuna 9,-58.521601,-34.639639
63,"TIERRA, TECHO Y TRABAJO",CLUB DE BARRIO,club_de_barrio,"Tierra, Techo Y Trabajo",UNICA,Jorge Newbery 4870,4855-1531,,,,"Voley, baby, gimnasia, patin, artes marciales, tango, folklore, boxeo.",biblioteca - cancha - salones,"NEWBERY, JORGE AV.",4870,"NEWBERY, JORGE AV. 4870",Chacarita,Comuna 15,-58.458506,-34.596047
268,TIRO FEDERAL ARGENTINO,CLUB,club,Tiro Federal Argentino,,Av. Del Libertador 6935,4782-4000 Fax: 4782-4404,info@tfaba.com.ar,,www.tfaba.com.ar,"tiro, tenis, bowling, fútbol, hip hop, musculación, gimnasio, gimnasia, tango, circuito aeróbico dirigido",canchas de tenis - natatorio,DEL LIBERTADOR AV.,6935,DEL LIBERTADOR AV. 6935,Nuñez,Comuna 13,-58.455283,-34.548438
49,TRIGLAV,CLUB DE BARRIO,club_de_barrio,Triglav,UNICA,Manuel Porcel de Peralta 1458,4644-0605,triglavbsas@yahoo.com.ar - triglavajedrez@gmail.com,TRIGLAV INSTITUCIONAL,www.ametriglav.com.ar,"Acuagym, baby,  Colonia de Vacaciones , Natación, Tango, Folklore, Bowling, Salsa y Merengue, Danza Jazz, Gimnasia Aeróbica, Yoga, Patin Artístico, Gimnasia Artística, Voleibol, Taekwondo, Basquetbol, Fútbol, Musculación, Buceo, Hockey, Subacuático, Escalada Deportiva, tango, jiu jitsu, kick boxing, boxeo.",canchas - salones - natatorio,"PORCEL DE PERALTA, MANUEL",1458,"PORCEL DE PERALTA, MANUEL 1458",Villa Real,Comuna 10,-58.529239,-34.621737
69,UNION ARGENTINA DE SORDOMUDOS  UAS,CLUB DE BARRIO,club_de_barrio,Union Argentina De Sordomudos  Uas,UNICA,Cuenca 1750,4581-6524,uas.union@gmail.com,,,"Futsal, basket, voley, artes marciales, danza.",salon - canchas,CUENCA,1750,CUENCA 1750,Villa Santa Rita,Comuna 11,-58.484881,-34.613933
22,UNION GENERAL ARMENIA DE CULTURA FISICA - UGAB,CLUB DE BARRIO,club_de_barrio,Union General Armenia De Cultura Fisica - Ugab,UNICA,Armenia 1318/22,4773-2820 int.128 (de 15hs a 20hs),secretaria@ugab.org.ar - ugab.deporte@gmail.com,Facebook | Ugab-Deportes,www.ugab.org.ar,"Básquet , futsal, voley, patín, tenis de mesa, karate, natación, gimnasia artística, taekwondo, iniciación deportiva.",natatorios climatizados,ARMENIA,1318,ARMENIA 1318,Palermo,Comuna 14,-58.431104,-34.591893
11,VASCO ARGENTINO GURE ECHEA,CLUB DE BARRIO,club_de_barrio,Vasco Argentino Gure Echea,UNICA,Peron 2143,4953-8328  4951-5363,,,,"Coro, pelota paleta, natacion, padel.",cancha - salon - natatorio,"PERON, JUAN DOMINGO, TTE. GENERAL",2143,"PERON, JUAN DOMINGO, TTE. GENERAL 2143",Balvanera,Comuna 3,-58.397111,-34.607155
159,VILLA CERINI,CLUB DE BARRIO,club_de_barrio,Villa Cerini,UNICA,Arias 4745,4545-5662,,A F C Villa Cerini,,"Baby fútbol, artes marciales, padel, boxeo, folklore, danza arabe, reggaeton.","biblioteca, 2 canchas, 3 salones",ARIAS,4745,ARIAS 4745,Saavedra,Comuna 12,-58.494837,-34.551996
36,VILLA GENERAL MITRE,CLUB DE BARRIO,club_de_barrio,Villa General Mitre,UNICA,Gavilan 1540,4584-2822 / 4581-0846,,,,"Basquet, Fútbol infantil, Futsal, Taekwondo, Yin Tao, Gimnasia Artística, Patín, Tela y Gimnasio de musculación",canchas - salones,GAVILAN,1540,GAVILAN 1540,Villa Gral. Mitre,Comuna 11,-58.468578,-34.612526
59,VILLA LURO NORTE,CLUB DE BARRIO,club_de_barrio,Villa Luro Norte,UNICA,Elpidio Gonzalez 5445,4568-1061,,VILLA LURO NORTE,www.villaluronorte.com.ar,"Baby fútbol, Futsal (AFA), Fútbol femenino, Patín artístico y competencia, Aikido, Artes marciales mixtas, Baile y ritmo zumba, Folklore, Bádminton. Actividades recreativas y de diversión para jubilados.",canchas - salones,"GONZALEZ, ELPIDIO",5445,"GONZALEZ, ELPIDIO 5445",Villa Luro,Comuna 10,-58.510598,-34.628789
168,VILLA MALCOLM,CLUB DE BARRIO,club_de_barrio,Villa Malcolm,UNICA,Avda. Cordoba 5064/72,4772-9796,clubvillamalcolm@gmail.com,,www.futbolvillamalcolm.webnode.com.ar,"Voley para niñas, baby fútbol, patín, gimnasia, gimnasia deportiva, clases de rock and roll, taekwondo, aikido, futsal a partir de 14 años , tango.",2 canchas - 2 salones,CORDOBA AV.,5064,CORDOBA AV. 5064,Villa Crespo,Comuna 15,-58.435062,-34.591100
139,VILLA REAL,CLUB DE BARRIO,club_de_barrio,Villa Real,UNICA,Tinogasta 5739,4642-0597,,,,"Baby fútbol, Gimnasia, Artes Marciales (boxeo, full contact, kick boxing, katate, yudo), danza (clasica, arabe), acrobacia en telas, pilates, spining.",Cancha - Gimnasio - 1 Salon,TINOGASTA,5739,TINOGASTA 5739,Villa Real,Comuna 10,-58.525252,-34.620777
111,VILLA SAHORES,CLUB DE BARRIO,club_de_barrio,Villa Sahores,UNICA,Santo Tome 2496,4584-7174,clubvillasahores@gmail.com,VILLA SAHORES,www.clubvillasahores.com.ar,"Básquet masculino y femenino, Fútbol (CAFI), Fútbol femenino, Natación, Aquagym, Pileta libre, Patín artístico, Vóley, Aikido, Taekwondo, Cross training, Kick Boxing, Muay Thai, Tai Chi Chuan, Chi Kung, Boxeo, Gimnasia aeróbica de competición, Fitness, Gimnasia artística, EFI, Acrobacia aérea en telas y Boulder. Tango, Ajedrez. Ping Pong. Actividades culturales",canchas - biblioteca - natatorio - salones- gimnasio - quincho,SANTO TOME,2496,SANTO TOME 2496,Villa Del Parque,Comuna 11,-58.481298,-34.601481
285,VOLUNTARIOS SIN FRONTERAS,CLUB DE BARRIO,club_de_barrio,Voluntarios Sin Fronteras,ANEXO deportivo,Playon Villa 31,4373-0509,,,,Futbol Femenino y Masculino - Volley Femenino - Artes Marciales Femenino y Masculino.,salon - canchas,perette carlos,,"PERETTE, CARLOS H. y CALLE 10 (NO OFICIAL)",Retiro,Comuna 1,-58.379111,-34.582225
102,VOLUNTARIOS SIN FRONTERAS,CLUB DE BARRIO,club_de_barrio,Voluntarios Sin Fronteras,ADMINISTRATIVA,"Tucuman 1516, 4to. A",4373-0509,,,,Futbol Femenino y Masculino - Volley Femenino - Artes Marciales Femenino y Masculino.,,TUCUMAN,1516,TUCUMAN 1516,San Nicolas,Comuna 1,-58.388299,-34.601762
116,YUPANQUI,CLUB DE BARRIO,club_de_barrio,Yupanqui,UNICA,Guamini 4512,4601-4477,,,,"Boxeo mixto, defensa personal, tenis de mesa, gimnasia, musculación, danzas árabes, artes marciales, natación, patín, básquet, danzas. Actividades culturales.",cancha - salon - natatorio,GUAMINI,4512,GUAMINI 4512,Villa Lugano,Comuna 8,-58.481586,-34.684052
